<?xml version="1.0" encoding="UTF-8" ?>
<gpx version="1.1" xmlns:xsi="http://www.w3.org/2001/XMLSchema-instance" 
    xmlns="http://www.topografix.com/GPX/1/1"
    xsi:schemaLocation="http://www.topografix.com/GPX/1/1 http://www.topografix.com/GPX/1/1/gpx.xsd" 
    creator="Openrunner - https://www.openrunner.com" >	<trk>
	                   <name>CAP Format L-23336243</name>
						<trkseg>
					<trkpt lat="43.384860" lon="-1.661520">
						<ele>5</ele>
						<time>2026-02-09T12:36:01Z</time>
					</trkpt>
					<trkpt lat="43.384840" lon="-1.661510">
						<ele>5</ele>
						<time>2026-02-09T12:36:02Z</time>
					</trkpt>
					<trkpt lat="43.384810" lon="-1.661530">
						<ele>5</ele>
						<time>2026-02-09T12:36:03Z</time>
					</trkpt>
					<trkpt lat="43.384790" lon="-1.661550">
						<ele>5</ele>
						<time>2026-02-09T12:36:04Z</time>
					</trkpt>
					<trkpt lat="43.384710" lon="-1.661390">
						<ele>5</ele>
						<time>2026-02-09T12:36:08Z</time>
					</trkpt>
					<trkpt lat="43.384620" lon="-1.661210">
						<ele>5</ele>
						<time>2026-02-09T12:36:14Z</time>
					</trkpt>
					<trkpt lat="43.384460" lon="-1.660950">
						<ele>5</ele>
						<time>2026-02-09T12:36:22Z</time>
					</trkpt>
					<trkpt lat="43.384310" lon="-1.660740">
						<ele>5</ele>
						<time>2026-02-09T12:36:29Z</time>
					</trkpt>
					<trkpt lat="43.383980" lon="-1.660300">
						<ele>5</ele>
						<time>2026-02-09T12:36:44Z</time>
					</trkpt>
					<trkpt lat="43.383630" lon="-1.659810">
						<ele>5</ele>
						<time>2026-02-09T12:37:01Z</time>
					</trkpt>
					<trkpt lat="43.383480" lon="-1.659610">
						<ele>6</ele>
						<time>2026-02-09T12:37:08Z</time>
					</trkpt>
					<trkpt lat="43.383400" lon="-1.659430">
						<ele>6</ele>
						<time>2026-02-09T12:37:13Z</time>
					</trkpt>
					<trkpt lat="43.383370" lon="-1.659440">
						<ele>6</ele>
						<time>2026-02-09T12:37:14Z</time>
					</trkpt>
					<trkpt lat="43.383340" lon="-1.659430">
						<ele>6</ele>
						<time>2026-02-09T12:37:15Z</time>
					</trkpt>
					<trkpt lat="43.383310" lon="-1.659400">
						<ele>6</ele>
						<time>2026-02-09T12:37:16Z</time>
					</trkpt>
					<trkpt lat="43.383290" lon="-1.659360">
						<ele>6</ele>
						<time>2026-02-09T12:37:18Z</time>
					</trkpt>
					<trkpt lat="43.383290" lon="-1.659320">
						<ele>6</ele>
						<time>2026-02-09T12:37:19Z</time>
					</trkpt>
					<trkpt lat="43.383300" lon="-1.659270">
						<ele>6</ele>
						<time>2026-02-09T12:37:20Z</time>
					</trkpt>
					<trkpt lat="43.383240" lon="-1.659230">
						<ele>6</ele>
						<time>2026-02-09T12:37:22Z</time>
					</trkpt>
					<trkpt lat="43.383140" lon="-1.659100">
						<ele>5</ele>
						<time>2026-02-09T12:37:27Z</time>
					</trkpt>
					<trkpt lat="43.383090" lon="-1.659020">
						<ele>5</ele>
						<time>2026-02-09T12:37:29Z</time>
					</trkpt>
					<trkpt lat="43.383060" lon="-1.658940">
						<ele>4</ele>
						<time>2026-02-09T12:37:31Z</time>
					</trkpt>
					<trkpt lat="43.382980" lon="-1.658770">
						<ele>4</ele>
						<time>2026-02-09T12:37:36Z</time>
					</trkpt>
					<trkpt lat="43.382750" lon="-1.658140">
						<ele>3</ele>
						<time>2026-02-09T12:37:53Z</time>
					</trkpt>
					<trkpt lat="43.382620" lon="-1.657800">
						<ele>4</ele>
						<time>2026-02-09T12:38:03Z</time>
					</trkpt>
					<trkpt lat="43.382340" lon="-1.657020">
						<ele>4</ele>
						<time>2026-02-09T12:38:24Z</time>
					</trkpt>
					<trkpt lat="43.382330" lon="-1.656950">
						<ele>4</ele>
						<time>2026-02-09T12:38:26Z</time>
					</trkpt>
					<trkpt lat="43.382340" lon="-1.656870">
						<ele>4</ele>
						<time>2026-02-09T12:38:27Z</time>
					</trkpt>
					<trkpt lat="43.382350" lon="-1.656840">
						<ele>4</ele>
						<time>2026-02-09T12:38:28Z</time>
					</trkpt>
					<trkpt lat="43.382360" lon="-1.656790">
						<ele>4</ele>
						<time>2026-02-09T12:38:30Z</time>
					</trkpt>
					<trkpt lat="43.382530" lon="-1.656540">
						<ele>4</ele>
						<time>2026-02-09T12:38:38Z</time>
					</trkpt>
					<trkpt lat="43.382800" lon="-1.656170">
						<ele>3</ele>
						<time>2026-02-09T12:38:51Z</time>
					</trkpt>
					<trkpt lat="43.382860" lon="-1.656090">
						<ele>3</ele>
						<time>2026-02-09T12:38:53Z</time>
					</trkpt>
					<trkpt lat="43.382960" lon="-1.655950">
						<ele>3</ele>
						<time>2026-02-09T12:38:58Z</time>
					</trkpt>
					<trkpt lat="43.383000" lon="-1.655910">
						<ele>3</ele>
						<time>2026-02-09T12:39:00Z</time>
					</trkpt>
					<trkpt lat="43.383080" lon="-1.655800">
						<ele>3</ele>
						<time>2026-02-09T12:39:04Z</time>
					</trkpt>
					<trkpt lat="43.383300" lon="-1.655510">
						<ele>3</ele>
						<time>2026-02-09T12:39:14Z</time>
					</trkpt>
					<trkpt lat="43.383520" lon="-1.655190">
						<ele>4</ele>
						<time>2026-02-09T12:39:24Z</time>
					</trkpt>
					<trkpt lat="43.383470" lon="-1.655130">
						<ele>4</ele>
						<time>2026-02-09T12:39:27Z</time>
					</trkpt>
					<trkpt lat="43.383450" lon="-1.655080">
						<ele>4</ele>
						<time>2026-02-09T12:39:28Z</time>
					</trkpt>
					<trkpt lat="43.383430" lon="-1.655040">
						<ele>4</ele>
						<time>2026-02-09T12:39:29Z</time>
					</trkpt>
					<trkpt lat="43.383370" lon="-1.654960">
						<ele>4</ele>
						<time>2026-02-09T12:39:32Z</time>
					</trkpt>
					<trkpt lat="43.383200" lon="-1.654720">
						<ele>4</ele>
						<time>2026-02-09T12:39:40Z</time>
					</trkpt>
					<trkpt lat="43.383210" lon="-1.654600">
						<ele>4</ele>
						<time>2026-02-09T12:39:43Z</time>
					</trkpt>
					<trkpt lat="43.383230" lon="-1.654520">
						<ele>4</ele>
						<time>2026-02-09T12:39:45Z</time>
					</trkpt>
					<trkpt lat="43.383350" lon="-1.654350">
						<ele>5</ele>
						<time>2026-02-09T12:39:51Z</time>
					</trkpt>
					<trkpt lat="43.383450" lon="-1.654220">
						<ele>5</ele>
						<time>2026-02-09T12:39:55Z</time>
					</trkpt>
					<trkpt lat="43.383630" lon="-1.653790">
						<ele>5</ele>
						<time>2026-02-09T12:40:07Z</time>
					</trkpt>
					<trkpt lat="43.383670" lon="-1.653720">
						<ele>5</ele>
						<time>2026-02-09T12:40:10Z</time>
					</trkpt>
					<trkpt lat="43.383690" lon="-1.653660">
						<ele>5</ele>
						<time>2026-02-09T12:40:11Z</time>
					</trkpt>
					<trkpt lat="43.383800" lon="-1.653440">
						<ele>6</ele>
						<time>2026-02-09T12:40:18Z</time>
					</trkpt>
					<trkpt lat="43.383870" lon="-1.653290">
						<ele>6</ele>
						<time>2026-02-09T12:40:22Z</time>
					</trkpt>
					<trkpt lat="43.383910" lon="-1.653100">
						<ele>9</ele>
						<time>2026-02-09T12:40:27Z</time>
					</trkpt>
					<trkpt lat="43.383900" lon="-1.652960">
						<ele>10</ele>
						<time>2026-02-09T12:40:30Z</time>
					</trkpt>
					<trkpt lat="43.383880" lon="-1.652850">
						<ele>11</ele>
						<time>2026-02-09T12:40:33Z</time>
					</trkpt>
					<trkpt lat="43.383840" lon="-1.652760">
						<ele>12</ele>
						<time>2026-02-09T12:40:35Z</time>
					</trkpt>
					<trkpt lat="43.383690" lon="-1.652580">
						<ele>12</ele>
						<time>2026-02-09T12:40:42Z</time>
					</trkpt>
					<trkpt lat="43.383600" lon="-1.652460">
						<ele>12</ele>
						<time>2026-02-09T12:40:46Z</time>
					</trkpt>
					<trkpt lat="43.383580" lon="-1.652480">
						<ele>12</ele>
						<time>2026-02-09T12:40:47Z</time>
					</trkpt>
					<trkpt lat="43.383470" lon="-1.652320">
						<ele>11</ele>
						<time>2026-02-09T12:40:52Z</time>
					</trkpt>
					<trkpt lat="43.383360" lon="-1.652100">
						<ele>11</ele>
						<time>2026-02-09T12:40:59Z</time>
					</trkpt>
					<trkpt lat="43.383240" lon="-1.651840">
						<ele>11</ele>
						<time>2026-02-09T12:41:06Z</time>
					</trkpt>
					<trkpt lat="43.383240" lon="-1.651740">
						<ele>11</ele>
						<time>2026-02-09T12:41:09Z</time>
					</trkpt>
					<trkpt lat="43.382980" lon="-1.651740">
						<ele>9</ele>
						<time>2026-02-09T12:41:18Z</time>
					</trkpt>
					<trkpt lat="43.382970" lon="-1.651480">
						<ele>9</ele>
						<time>2026-02-09T12:41:24Z</time>
					</trkpt>
					<trkpt lat="43.382970" lon="-1.651310">
						<ele>10</ele>
						<time>2026-02-09T12:41:28Z</time>
					</trkpt>
					<trkpt lat="43.382690" lon="-1.650580">
						<ele>8</ele>
						<time>2026-02-09T12:41:48Z</time>
					</trkpt>
					<trkpt lat="43.382550" lon="-1.650370">
						<ele>7</ele>
						<time>2026-02-09T12:41:55Z</time>
					</trkpt>
					<trkpt lat="43.382600" lon="-1.650300">
						<ele>7</ele>
						<time>2026-02-09T12:41:57Z</time>
					</trkpt>
					<trkpt lat="43.382570" lon="-1.650240">
						<ele>7</ele>
						<time>2026-02-09T12:41:59Z</time>
					</trkpt>
					<trkpt lat="43.382580" lon="-1.650210">
						<ele>7</ele>
						<time>2026-02-09T12:42:00Z</time>
					</trkpt>
					<trkpt lat="43.382630" lon="-1.650060">
						<ele>8</ele>
						<time>2026-02-09T12:42:04Z</time>
					</trkpt>
					<trkpt lat="43.382640" lon="-1.650010">
						<ele>8</ele>
						<time>2026-02-09T12:42:05Z</time>
					</trkpt>
					<trkpt lat="43.382560" lon="-1.649790">
						<ele>8</ele>
						<time>2026-02-09T12:42:11Z</time>
					</trkpt>
					<trkpt lat="43.382530" lon="-1.649680">
						<ele>8</ele>
						<time>2026-02-09T12:42:14Z</time>
					</trkpt>
					<trkpt lat="43.382500" lon="-1.649570">
						<ele>8</ele>
						<time>2026-02-09T12:42:17Z</time>
					</trkpt>
					<trkpt lat="43.382470" lon="-1.649360">
						<ele>8</ele>
						<time>2026-02-09T12:42:22Z</time>
					</trkpt>
					<trkpt lat="43.382470" lon="-1.649160">
						<ele>8</ele>
						<time>2026-02-09T12:42:27Z</time>
					</trkpt>
					<trkpt lat="43.382480" lon="-1.648900">
						<ele>8</ele>
						<time>2026-02-09T12:42:33Z</time>
					</trkpt>
					<trkpt lat="43.382490" lon="-1.648810">
						<ele>8</ele>
						<time>2026-02-09T12:42:35Z</time>
					</trkpt>
					<trkpt lat="43.382500" lon="-1.648670">
						<ele>9</ele>
						<time>2026-02-09T12:42:39Z</time>
					</trkpt>
					<trkpt lat="43.382560" lon="-1.648050">
						<ele>8</ele>
						<time>2026-02-09T12:42:54Z</time>
					</trkpt>
					<trkpt lat="43.382570" lon="-1.647950">
						<ele>8</ele>
						<time>2026-02-09T12:42:56Z</time>
					</trkpt>
					<trkpt lat="43.382580" lon="-1.647880">
						<ele>8</ele>
						<time>2026-02-09T12:42:58Z</time>
					</trkpt>
					<trkpt lat="43.382680" lon="-1.646840">
						<ele>6</ele>
						<time>2026-02-09T12:43:23Z</time>
					</trkpt>
					<trkpt lat="43.382740" lon="-1.646250">
						<ele>7</ele>
						<time>2026-02-09T12:43:38Z</time>
					</trkpt>
					<trkpt lat="43.382750" lon="-1.645760">
						<ele>8</ele>
						<time>2026-02-09T12:43:50Z</time>
					</trkpt>
					<trkpt lat="43.382740" lon="-1.645050">
						<ele>10</ele>
						<time>2026-02-09T12:44:07Z</time>
					</trkpt>
					<trkpt lat="43.382740" lon="-1.645020">
						<ele>10</ele>
						<time>2026-02-09T12:44:08Z</time>
					</trkpt>
					<trkpt lat="43.382740" lon="-1.644940">
						<ele>10</ele>
						<time>2026-02-09T12:44:10Z</time>
					</trkpt>
					<trkpt lat="43.382730" lon="-1.644870">
						<ele>10</ele>
						<time>2026-02-09T12:44:11Z</time>
					</trkpt>
					<trkpt lat="43.382690" lon="-1.644330">
						<ele>8</ele>
						<time>2026-02-09T12:44:25Z</time>
					</trkpt>
					<trkpt lat="43.382660" lon="-1.644150">
						<ele>8</ele>
						<time>2026-02-09T12:44:29Z</time>
					</trkpt>
					<trkpt lat="43.382610" lon="-1.643850">
						<ele>7</ele>
						<time>2026-02-09T12:44:37Z</time>
					</trkpt>
					<trkpt lat="43.382530" lon="-1.643610">
						<ele>6</ele>
						<time>2026-02-09T12:44:43Z</time>
					</trkpt>
					<trkpt lat="43.382400" lon="-1.643320">
						<ele>5</ele>
						<time>2026-02-09T12:44:51Z</time>
					</trkpt>
					<trkpt lat="43.382230" lon="-1.643050">
						<ele>5</ele>
						<time>2026-02-09T12:45:00Z</time>
					</trkpt>
					<trkpt lat="43.381960" lon="-1.642760">
						<ele>5</ele>
						<time>2026-02-09T12:45:11Z</time>
					</trkpt>
					<trkpt lat="43.381560" lon="-1.642390">
						<ele>5</ele>
						<time>2026-02-09T12:45:27Z</time>
					</trkpt>
					<trkpt lat="43.381270" lon="-1.642110">
						<ele>6</ele>
						<time>2026-02-09T12:45:39Z</time>
					</trkpt>
					<trkpt lat="43.381180" lon="-1.641980">
						<ele>6</ele>
						<time>2026-02-09T12:45:44Z</time>
					</trkpt>
					<trkpt lat="43.381030" lon="-1.641650">
						<ele>7</ele>
						<time>2026-02-09T12:45:53Z</time>
					</trkpt>
					<trkpt lat="43.380640" lon="-1.640800">
						<ele>8</ele>
						<time>2026-02-09T12:46:17Z</time>
					</trkpt>
					<trkpt lat="43.380570" lon="-1.640690">
						<ele>9</ele>
						<time>2026-02-09T12:46:21Z</time>
					</trkpt>
					<trkpt lat="43.380510" lon="-1.640600">
						<ele>9</ele>
						<time>2026-02-09T12:46:24Z</time>
					</trkpt>
					<trkpt lat="43.379920" lon="-1.640030">
						<ele>8</ele>
						<time>2026-02-09T12:46:48Z</time>
					</trkpt>
					<trkpt lat="43.379490" lon="-1.639620">
						<ele>7</ele>
						<time>2026-02-09T12:47:05Z</time>
					</trkpt>
					<trkpt lat="43.379070" lon="-1.639230">
						<ele>6</ele>
						<time>2026-02-09T12:47:22Z</time>
					</trkpt>
					<trkpt lat="43.379040" lon="-1.639200">
						<ele>6</ele>
						<time>2026-02-09T12:47:23Z</time>
					</trkpt>
					<trkpt lat="43.378280" lon="-1.638460">
						<ele>7</ele>
						<time>2026-02-09T12:47:55Z</time>
					</trkpt>
					<trkpt lat="43.379040" lon="-1.639200">
						<ele>6</ele>
						<time>2026-02-09T12:48:26Z</time>
					</trkpt>
					<trkpt lat="43.379070" lon="-1.639230">
						<ele>6</ele>
						<time>2026-02-09T12:48:27Z</time>
					</trkpt>
					<trkpt lat="43.379490" lon="-1.639620">
						<ele>7</ele>
						<time>2026-02-09T12:48:44Z</time>
					</trkpt>
					<trkpt lat="43.379920" lon="-1.640030">
						<ele>8</ele>
						<time>2026-02-09T12:49:01Z</time>
					</trkpt>
					<trkpt lat="43.380510" lon="-1.640600">
						<ele>9</ele>
						<time>2026-02-09T12:49:25Z</time>
					</trkpt>
					<trkpt lat="43.380570" lon="-1.640690">
						<ele>9</ele>
						<time>2026-02-09T12:49:28Z</time>
					</trkpt>
					<trkpt lat="43.380640" lon="-1.640800">
						<ele>8</ele>
						<time>2026-02-09T12:49:32Z</time>
					</trkpt>
					<trkpt lat="43.381030" lon="-1.641650">
						<ele>7</ele>
						<time>2026-02-09T12:49:56Z</time>
					</trkpt>
					<trkpt lat="43.381180" lon="-1.641980">
						<ele>6</ele>
						<time>2026-02-09T12:50:06Z</time>
					</trkpt>
					<trkpt lat="43.381270" lon="-1.642110">
						<ele>6</ele>
						<time>2026-02-09T12:50:10Z</time>
					</trkpt>
					<trkpt lat="43.381560" lon="-1.642390">
						<ele>5</ele>
						<time>2026-02-09T12:50:22Z</time>
					</trkpt>
					<trkpt lat="43.381960" lon="-1.642760">
						<ele>5</ele>
						<time>2026-02-09T12:50:38Z</time>
					</trkpt>
					<trkpt lat="43.382230" lon="-1.643050">
						<ele>5</ele>
						<time>2026-02-09T12:50:49Z</time>
					</trkpt>
					<trkpt lat="43.382400" lon="-1.643320">
						<ele>5</ele>
						<time>2026-02-09T12:50:58Z</time>
					</trkpt>
					<trkpt lat="43.382530" lon="-1.643610">
						<ele>6</ele>
						<time>2026-02-09T12:51:06Z</time>
					</trkpt>
					<trkpt lat="43.382610" lon="-1.643850">
						<ele>7</ele>
						<time>2026-02-09T12:51:13Z</time>
					</trkpt>
					<trkpt lat="43.382660" lon="-1.644150">
						<ele>8</ele>
						<time>2026-02-09T12:51:20Z</time>
					</trkpt>
					<trkpt lat="43.382690" lon="-1.644330">
						<ele>8</ele>
						<time>2026-02-09T12:51:25Z</time>
					</trkpt>
					<trkpt lat="43.382730" lon="-1.644870">
						<ele>10</ele>
						<time>2026-02-09T12:51:38Z</time>
					</trkpt>
					<trkpt lat="43.382740" lon="-1.644940">
						<ele>10</ele>
						<time>2026-02-09T12:51:39Z</time>
					</trkpt>
					<trkpt lat="43.382650" lon="-1.644960">
						<ele>9</ele>
						<time>2026-02-09T12:51:42Z</time>
					</trkpt>
					<trkpt lat="43.382630" lon="-1.645060">
						<ele>8</ele>
						<time>2026-02-09T12:51:45Z</time>
					</trkpt>
					<trkpt lat="43.381890" lon="-1.648860">
						<ele>7</ele>
						<time>2026-02-09T12:53:20Z</time>
					</trkpt>
					<trkpt lat="43.381660" lon="-1.650040">
						<ele>7</ele>
						<time>2026-02-09T12:53:50Z</time>
					</trkpt>
					<trkpt lat="43.381340" lon="-1.651670">
						<ele>5</ele>
						<time>2026-02-09T12:54:31Z</time>
					</trkpt>
					<trkpt lat="43.381300" lon="-1.651910">
						<ele>5</ele>
						<time>2026-02-09T12:54:37Z</time>
					</trkpt>
					<trkpt lat="43.381260" lon="-1.652400">
						<ele>4</ele>
						<time>2026-02-09T12:54:49Z</time>
					</trkpt>
					<trkpt lat="43.381250" lon="-1.652860">
						<ele>3</ele>
						<time>2026-02-09T12:55:00Z</time>
					</trkpt>
					<trkpt lat="43.381260" lon="-1.653210">
						<ele>3</ele>
						<time>2026-02-09T12:55:09Z</time>
					</trkpt>
					<trkpt lat="43.381300" lon="-1.653550">
						<ele>3</ele>
						<time>2026-02-09T12:55:17Z</time>
					</trkpt>
					<trkpt lat="43.381350" lon="-1.653940">
						<ele>2</ele>
						<time>2026-02-09T12:55:26Z</time>
					</trkpt>
					<trkpt lat="43.381470" lon="-1.654450">
						<ele>3</ele>
						<time>2026-02-09T12:55:39Z</time>
					</trkpt>
					<trkpt lat="43.381490" lon="-1.654560">
						<ele>3</ele>
						<time>2026-02-09T12:55:42Z</time>
					</trkpt>
					<trkpt lat="43.381570" lon="-1.654870">
						<ele>4</ele>
						<time>2026-02-09T12:55:50Z</time>
					</trkpt>
					<trkpt lat="43.381610" lon="-1.655030">
						<ele>4</ele>
						<time>2026-02-09T12:55:54Z</time>
					</trkpt>
					<trkpt lat="43.381620" lon="-1.655080">
						<ele>4</ele>
						<time>2026-02-09T12:55:56Z</time>
					</trkpt>
					<trkpt lat="43.381810" lon="-1.655080">
						<ele>4</ele>
						<time>2026-02-09T12:56:02Z</time>
					</trkpt>
					<trkpt lat="43.381840" lon="-1.655370">
						<ele>4</ele>
						<time>2026-02-09T12:56:09Z</time>
					</trkpt>
					<trkpt lat="43.381930" lon="-1.656150">
						<ele>3</ele>
						<time>2026-02-09T12:56:28Z</time>
					</trkpt>
					<trkpt lat="43.381970" lon="-1.656480">
						<ele>3</ele>
						<time>2026-02-09T12:56:36Z</time>
					</trkpt>
					<trkpt lat="43.382030" lon="-1.656710">
						<ele>3</ele>
						<time>2026-02-09T12:56:42Z</time>
					</trkpt>
					<trkpt lat="43.382070" lon="-1.656870">
						<ele>3</ele>
						<time>2026-02-09T12:56:46Z</time>
					</trkpt>
					<trkpt lat="43.382160" lon="-1.657210">
						<ele>3</ele>
						<time>2026-02-09T12:56:55Z</time>
					</trkpt>
					<trkpt lat="43.382200" lon="-1.657370">
						<ele>3</ele>
						<time>2026-02-09T12:56:59Z</time>
					</trkpt>
					<trkpt lat="43.382650" lon="-1.659200">
						<ele>2</ele>
						<time>2026-02-09T12:57:46Z</time>
					</trkpt>
					<trkpt lat="43.382680" lon="-1.659270">
						<ele>2</ele>
						<time>2026-02-09T12:57:48Z</time>
					</trkpt>
					<trkpt lat="43.383030" lon="-1.660210">
						<ele>5</ele>
						<time>2026-02-09T12:58:14Z</time>
					</trkpt>
					<trkpt lat="43.383270" lon="-1.660870">
						<ele>6</ele>
						<time>2026-02-09T12:58:31Z</time>
					</trkpt>
					<trkpt lat="43.383420" lon="-1.661280">
						<ele>4</ele>
						<time>2026-02-09T12:58:43Z</time>
					</trkpt>
					<trkpt lat="43.383830" lon="-1.661770">
						<ele>5</ele>
						<time>2026-02-09T12:59:01Z</time>
					</trkpt>
					<trkpt lat="43.384360" lon="-1.662390">
						<ele>5</ele>
						<time>2026-02-09T12:59:24Z</time>
					</trkpt>
					<trkpt lat="43.384780" lon="-1.661580">
						<ele>5</ele>
						<time>2026-02-09T12:59:48Z</time>
					</trkpt>
					<trkpt lat="43.384790" lon="-1.661550">
						<ele>5</ele>
						<time>2026-02-09T12:59:49Z</time>
					</trkpt>
					<trkpt lat="43.384710" lon="-1.661390">
						<ele>5</ele>
						<time>2026-02-09T12:59:54Z</time>
					</trkpt>
					<trkpt lat="43.384620" lon="-1.661210">
						<ele>5</ele>
						<time>2026-02-09T12:59:59Z</time>
					</trkpt>
					<trkpt lat="43.384460" lon="-1.660950">
						<ele>5</ele>
						<time>2026-02-09T13:00:07Z</time>
					</trkpt>
					<trkpt lat="43.384310" lon="-1.660740">
						<ele>5</ele>
						<time>2026-02-09T13:00:14Z</time>
					</trkpt>
					<trkpt lat="43.383980" lon="-1.660300">
						<ele>5</ele>
						<time>2026-02-09T13:00:30Z</time>
					</trkpt>
					<trkpt lat="43.383630" lon="-1.659810">
						<ele>5</ele>
						<time>2026-02-09T13:00:46Z</time>
					</trkpt>
					<trkpt lat="43.383480" lon="-1.659610">
						<ele>6</ele>
						<time>2026-02-09T13:00:53Z</time>
					</trkpt>
					<trkpt lat="43.383400" lon="-1.659430">
						<ele>6</ele>
						<time>2026-02-09T13:00:58Z</time>
					</trkpt>
					<trkpt lat="43.383370" lon="-1.659440">
						<ele>6</ele>
						<time>2026-02-09T13:00:59Z</time>
					</trkpt>
					<trkpt lat="43.383340" lon="-1.659430">
						<ele>6</ele>
						<time>2026-02-09T13:01:00Z</time>
					</trkpt>
					<trkpt lat="43.383310" lon="-1.659400">
						<ele>6</ele>
						<time>2026-02-09T13:01:02Z</time>
					</trkpt>
					<trkpt lat="43.383290" lon="-1.659360">
						<ele>6</ele>
						<time>2026-02-09T13:01:03Z</time>
					</trkpt>
					<trkpt lat="43.383290" lon="-1.659320">
						<ele>6</ele>
						<time>2026-02-09T13:01:04Z</time>
					</trkpt>
					<trkpt lat="43.383300" lon="-1.659270">
						<ele>6</ele>
						<time>2026-02-09T13:01:05Z</time>
					</trkpt>
					<trkpt lat="43.383240" lon="-1.659230">
						<ele>6</ele>
						<time>2026-02-09T13:01:07Z</time>
					</trkpt>
					<trkpt lat="43.383140" lon="-1.659100">
						<ele>5</ele>
						<time>2026-02-09T13:01:12Z</time>
					</trkpt>
					<trkpt lat="43.383090" lon="-1.659020">
						<ele>5</ele>
						<time>2026-02-09T13:01:14Z</time>
					</trkpt>
					<trkpt lat="43.383060" lon="-1.658940">
						<ele>4</ele>
						<time>2026-02-09T13:01:17Z</time>
					</trkpt>
					<trkpt lat="43.382980" lon="-1.658770">
						<ele>4</ele>
						<time>2026-02-09T13:01:21Z</time>
					</trkpt>
					<trkpt lat="43.382750" lon="-1.658140">
						<ele>3</ele>
						<time>2026-02-09T13:01:39Z</time>
					</trkpt>
					<trkpt lat="43.382620" lon="-1.657800">
						<ele>4</ele>
						<time>2026-02-09T13:01:48Z</time>
					</trkpt>
					<trkpt lat="43.382340" lon="-1.657020">
						<ele>4</ele>
						<time>2026-02-09T13:02:09Z</time>
					</trkpt>
					<trkpt lat="43.382330" lon="-1.656950">
						<ele>4</ele>
						<time>2026-02-09T13:02:11Z</time>
					</trkpt>
					<trkpt lat="43.382340" lon="-1.656870">
						<ele>4</ele>
						<time>2026-02-09T13:02:13Z</time>
					</trkpt>
					<trkpt lat="43.382360" lon="-1.656790">
						<ele>4</ele>
						<time>2026-02-09T13:02:15Z</time>
					</trkpt>
					<trkpt lat="43.382440" lon="-1.656670">
						<ele>4</ele>
						<time>2026-02-09T13:02:19Z</time>
					</trkpt>
					<trkpt lat="43.382530" lon="-1.656540">
						<ele>4</ele>
						<time>2026-02-09T13:02:23Z</time>
					</trkpt>
					<trkpt lat="43.382800" lon="-1.656170">
						<ele>3</ele>
						<time>2026-02-09T13:02:36Z</time>
					</trkpt>
					<trkpt lat="43.382860" lon="-1.656090">
						<ele>3</ele>
						<time>2026-02-09T13:02:39Z</time>
					</trkpt>
					<trkpt lat="43.382960" lon="-1.655950">
						<ele>3</ele>
						<time>2026-02-09T13:02:43Z</time>
					</trkpt>
					<trkpt lat="43.383000" lon="-1.655910">
						<ele>3</ele>
						<time>2026-02-09T13:02:45Z</time>
					</trkpt>
					<trkpt lat="43.383080" lon="-1.655800">
						<ele>3</ele>
						<time>2026-02-09T13:02:49Z</time>
					</trkpt>
					<trkpt lat="43.383300" lon="-1.655510">
						<ele>3</ele>
						<time>2026-02-09T13:02:59Z</time>
					</trkpt>
					<trkpt lat="43.383520" lon="-1.655190">
						<ele>4</ele>
						<time>2026-02-09T13:03:10Z</time>
					</trkpt>
					<trkpt lat="43.383470" lon="-1.655130">
						<ele>4</ele>
						<time>2026-02-09T13:03:12Z</time>
					</trkpt>
					<trkpt lat="43.383450" lon="-1.655080">
						<ele>4</ele>
						<time>2026-02-09T13:03:13Z</time>
					</trkpt>
					<trkpt lat="43.383430" lon="-1.655040">
						<ele>4</ele>
						<time>2026-02-09T13:03:14Z</time>
					</trkpt>
					<trkpt lat="43.383370" lon="-1.654960">
						<ele>4</ele>
						<time>2026-02-09T13:03:17Z</time>
					</trkpt>
					<trkpt lat="43.383200" lon="-1.654720">
						<ele>4</ele>
						<time>2026-02-09T13:03:25Z</time>
					</trkpt>
					<trkpt lat="43.383210" lon="-1.654600">
						<ele>4</ele>
						<time>2026-02-09T13:03:28Z</time>
					</trkpt>
					<trkpt lat="43.383230" lon="-1.654520">
						<ele>4</ele>
						<time>2026-02-09T13:03:30Z</time>
					</trkpt>
					<trkpt lat="43.383350" lon="-1.654350">
						<ele>5</ele>
						<time>2026-02-09T13:03:36Z</time>
					</trkpt>
					<trkpt lat="43.383450" lon="-1.654220">
						<ele>5</ele>
						<time>2026-02-09T13:03:41Z</time>
					</trkpt>
					<trkpt lat="43.383630" lon="-1.653790">
						<ele>5</ele>
						<time>2026-02-09T13:03:53Z</time>
					</trkpt>
					<trkpt lat="43.383670" lon="-1.653720">
						<ele>5</ele>
						<time>2026-02-09T13:03:55Z</time>
					</trkpt>
					<trkpt lat="43.383690" lon="-1.653660">
						<ele>5</ele>
						<time>2026-02-09T13:03:56Z</time>
					</trkpt>
					<trkpt lat="43.383800" lon="-1.653440">
						<ele>6</ele>
						<time>2026-02-09T13:04:03Z</time>
					</trkpt>
					<trkpt lat="43.383870" lon="-1.653290">
						<ele>6</ele>
						<time>2026-02-09T13:04:07Z</time>
					</trkpt>
					<trkpt lat="43.383910" lon="-1.653100">
						<ele>9</ele>
						<time>2026-02-09T13:04:12Z</time>
					</trkpt>
					<trkpt lat="43.383900" lon="-1.652960">
						<ele>10</ele>
						<time>2026-02-09T13:04:15Z</time>
					</trkpt>
					<trkpt lat="43.383880" lon="-1.652850">
						<ele>11</ele>
						<time>2026-02-09T13:04:18Z</time>
					</trkpt>
					<trkpt lat="43.383840" lon="-1.652760">
						<ele>12</ele>
						<time>2026-02-09T13:04:21Z</time>
					</trkpt>
					<trkpt lat="43.383600" lon="-1.652460">
						<ele>12</ele>
						<time>2026-02-09T13:04:31Z</time>
					</trkpt>
					<trkpt lat="43.383580" lon="-1.652480">
						<ele>12</ele>
						<time>2026-02-09T13:04:32Z</time>
					</trkpt>
					<trkpt lat="43.383550" lon="-1.652440">
						<ele>12</ele>
						<time>2026-02-09T13:04:34Z</time>
					</trkpt>
					<trkpt lat="43.383470" lon="-1.652320">
						<ele>11</ele>
						<time>2026-02-09T13:04:38Z</time>
					</trkpt>
					<trkpt lat="43.383360" lon="-1.652100">
						<ele>11</ele>
						<time>2026-02-09T13:04:44Z</time>
					</trkpt>
					<trkpt lat="43.383240" lon="-1.651840">
						<ele>11</ele>
						<time>2026-02-09T13:04:52Z</time>
					</trkpt>
					<trkpt lat="43.383240" lon="-1.651740">
						<ele>11</ele>
						<time>2026-02-09T13:04:54Z</time>
					</trkpt>
					<trkpt lat="43.382980" lon="-1.651740">
						<ele>9</ele>
						<time>2026-02-09T13:05:03Z</time>
					</trkpt>
					<trkpt lat="43.382970" lon="-1.651480">
						<ele>9</ele>
						<time>2026-02-09T13:05:09Z</time>
					</trkpt>
					<trkpt lat="43.382970" lon="-1.651310">
						<ele>10</ele>
						<time>2026-02-09T13:05:13Z</time>
					</trkpt>
					<trkpt lat="43.382690" lon="-1.650580">
						<ele>8</ele>
						<time>2026-02-09T13:05:33Z</time>
					</trkpt>
					<trkpt lat="43.382550" lon="-1.650370">
						<ele>7</ele>
						<time>2026-02-09T13:05:40Z</time>
					</trkpt>
					<trkpt lat="43.382600" lon="-1.650300">
						<ele>7</ele>
						<time>2026-02-09T13:05:42Z</time>
					</trkpt>
					<trkpt lat="43.382570" lon="-1.650240">
						<ele>7</ele>
						<time>2026-02-09T13:05:44Z</time>
					</trkpt>
					<trkpt lat="43.382580" lon="-1.650210">
						<ele>7</ele>
						<time>2026-02-09T13:05:45Z</time>
					</trkpt>
					<trkpt lat="43.382630" lon="-1.650060">
						<ele>8</ele>
						<time>2026-02-09T13:05:49Z</time>
					</trkpt>
					<trkpt lat="43.382640" lon="-1.650010">
						<ele>8</ele>
						<time>2026-02-09T13:05:50Z</time>
					</trkpt>
					<trkpt lat="43.382560" lon="-1.649790">
						<ele>8</ele>
						<time>2026-02-09T13:05:56Z</time>
					</trkpt>
					<trkpt lat="43.382530" lon="-1.649680">
						<ele>8</ele>
						<time>2026-02-09T13:05:59Z</time>
					</trkpt>
					<trkpt lat="43.382500" lon="-1.649570">
						<ele>8</ele>
						<time>2026-02-09T13:06:02Z</time>
					</trkpt>
					<trkpt lat="43.382470" lon="-1.649360">
						<ele>8</ele>
						<time>2026-02-09T13:06:07Z</time>
					</trkpt>
					<trkpt lat="43.382470" lon="-1.649160">
						<ele>8</ele>
						<time>2026-02-09T13:06:12Z</time>
					</trkpt>
					<trkpt lat="43.382480" lon="-1.648900">
						<ele>8</ele>
						<time>2026-02-09T13:06:18Z</time>
					</trkpt>
					<trkpt lat="43.382490" lon="-1.648810">
						<ele>8</ele>
						<time>2026-02-09T13:06:20Z</time>
					</trkpt>
					<trkpt lat="43.382500" lon="-1.648670">
						<ele>9</ele>
						<time>2026-02-09T13:06:24Z</time>
					</trkpt>
					<trkpt lat="43.382560" lon="-1.648050">
						<ele>8</ele>
						<time>2026-02-09T13:06:39Z</time>
					</trkpt>
					<trkpt lat="43.382570" lon="-1.647950">
						<ele>8</ele>
						<time>2026-02-09T13:06:42Z</time>
					</trkpt>
					<trkpt lat="43.382580" lon="-1.647880">
						<ele>8</ele>
						<time>2026-02-09T13:06:43Z</time>
					</trkpt>
					<trkpt lat="43.382680" lon="-1.646840">
						<ele>6</ele>
						<time>2026-02-09T13:07:09Z</time>
					</trkpt>
					<trkpt lat="43.382740" lon="-1.646250">
						<ele>7</ele>
						<time>2026-02-09T13:07:23Z</time>
					</trkpt>
					<trkpt lat="43.382750" lon="-1.645760">
						<ele>8</ele>
						<time>2026-02-09T13:07:35Z</time>
					</trkpt>
					<trkpt lat="43.382740" lon="-1.645050">
						<ele>10</ele>
						<time>2026-02-09T13:07:52Z</time>
					</trkpt>
					<trkpt lat="43.382740" lon="-1.645020">
						<ele>10</ele>
						<time>2026-02-09T13:07:53Z</time>
					</trkpt>
					<trkpt lat="43.382740" lon="-1.644940">
						<ele>10</ele>
						<time>2026-02-09T13:07:55Z</time>
					</trkpt>
					<trkpt lat="43.382730" lon="-1.644870">
						<ele>10</ele>
						<time>2026-02-09T13:07:57Z</time>
					</trkpt>
					<trkpt lat="43.382690" lon="-1.644330">
						<ele>8</ele>
						<time>2026-02-09T13:08:10Z</time>
					</trkpt>
					<trkpt lat="43.382660" lon="-1.644150">
						<ele>8</ele>
						<time>2026-02-09T13:08:14Z</time>
					</trkpt>
					<trkpt lat="43.382610" lon="-1.643850">
						<ele>7</ele>
						<time>2026-02-09T13:08:22Z</time>
					</trkpt>
					<trkpt lat="43.382530" lon="-1.643610">
						<ele>6</ele>
						<time>2026-02-09T13:08:28Z</time>
					</trkpt>
					<trkpt lat="43.382400" lon="-1.643320">
						<ele>5</ele>
						<time>2026-02-09T13:08:36Z</time>
					</trkpt>
					<trkpt lat="43.382230" lon="-1.643050">
						<ele>5</ele>
						<time>2026-02-09T13:08:45Z</time>
					</trkpt>
					<trkpt lat="43.381960" lon="-1.642760">
						<ele>5</ele>
						<time>2026-02-09T13:08:56Z</time>
					</trkpt>
					<trkpt lat="43.381560" lon="-1.642390">
						<ele>5</ele>
						<time>2026-02-09T13:09:13Z</time>
					</trkpt>
					<trkpt lat="43.381270" lon="-1.642110">
						<ele>6</ele>
						<time>2026-02-09T13:09:24Z</time>
					</trkpt>
					<trkpt lat="43.381180" lon="-1.641980">
						<ele>6</ele>
						<time>2026-02-09T13:09:29Z</time>
					</trkpt>
					<trkpt lat="43.381030" lon="-1.641650">
						<ele>7</ele>
						<time>2026-02-09T13:09:38Z</time>
					</trkpt>
					<trkpt lat="43.380640" lon="-1.640800">
						<ele>8</ele>
						<time>2026-02-09T13:10:03Z</time>
					</trkpt>
					<trkpt lat="43.380570" lon="-1.640690">
						<ele>9</ele>
						<time>2026-02-09T13:10:06Z</time>
					</trkpt>
					<trkpt lat="43.380510" lon="-1.640600">
						<ele>9</ele>
						<time>2026-02-09T13:10:09Z</time>
					</trkpt>
					<trkpt lat="43.379920" lon="-1.640030">
						<ele>8</ele>
						<time>2026-02-09T13:10:33Z</time>
					</trkpt>
					<trkpt lat="43.379490" lon="-1.639620">
						<ele>7</ele>
						<time>2026-02-09T13:10:51Z</time>
					</trkpt>
					<trkpt lat="43.379070" lon="-1.639230">
						<ele>6</ele>
						<time>2026-02-09T13:11:07Z</time>
					</trkpt>
					<trkpt lat="43.379040" lon="-1.639200">
						<ele>6</ele>
						<time>2026-02-09T13:11:09Z</time>
					</trkpt>
					<trkpt lat="43.378400" lon="-1.638580">
						<ele>7</ele>
						<time>2026-02-09T13:11:35Z</time>
					</trkpt>
					<trkpt lat="43.379040" lon="-1.639200">
						<ele>6</ele>
						<time>2026-02-09T13:12:01Z</time>
					</trkpt>
					<trkpt lat="43.379070" lon="-1.639230">
						<ele>6</ele>
						<time>2026-02-09T13:12:02Z</time>
					</trkpt>
					<trkpt lat="43.379490" lon="-1.639620">
						<ele>7</ele>
						<time>2026-02-09T13:12:19Z</time>
					</trkpt>
					<trkpt lat="43.379920" lon="-1.640030">
						<ele>8</ele>
						<time>2026-02-09T13:12:37Z</time>
					</trkpt>
					<trkpt lat="43.380510" lon="-1.640600">
						<ele>9</ele>
						<time>2026-02-09T13:13:01Z</time>
					</trkpt>
					<trkpt lat="43.380570" lon="-1.640690">
						<ele>9</ele>
						<time>2026-02-09T13:13:04Z</time>
					</trkpt>
					<trkpt lat="43.380640" lon="-1.640800">
						<ele>8</ele>
						<time>2026-02-09T13:13:07Z</time>
					</trkpt>
					<trkpt lat="43.381030" lon="-1.641650">
						<ele>7</ele>
						<time>2026-02-09T13:13:31Z</time>
					</trkpt>
					<trkpt lat="43.381180" lon="-1.641980">
						<ele>6</ele>
						<time>2026-02-09T13:13:41Z</time>
					</trkpt>
					<trkpt lat="43.381270" lon="-1.642110">
						<ele>6</ele>
						<time>2026-02-09T13:13:45Z</time>
					</trkpt>
					<trkpt lat="43.381560" lon="-1.642390">
						<ele>5</ele>
						<time>2026-02-09T13:13:57Z</time>
					</trkpt>
					<trkpt lat="43.381960" lon="-1.642760">
						<ele>5</ele>
						<time>2026-02-09T13:14:13Z</time>
					</trkpt>
					<trkpt lat="43.382230" lon="-1.643050">
						<ele>5</ele>
						<time>2026-02-09T13:14:25Z</time>
					</trkpt>
					<trkpt lat="43.382400" lon="-1.643320">
						<ele>5</ele>
						<time>2026-02-09T13:14:33Z</time>
					</trkpt>
					<trkpt lat="43.382530" lon="-1.643610">
						<ele>6</ele>
						<time>2026-02-09T13:14:41Z</time>
					</trkpt>
					<trkpt lat="43.382610" lon="-1.643850">
						<ele>7</ele>
						<time>2026-02-09T13:14:48Z</time>
					</trkpt>
					<trkpt lat="43.382660" lon="-1.644150">
						<ele>8</ele>
						<time>2026-02-09T13:14:55Z</time>
					</trkpt>
					<trkpt lat="43.382690" lon="-1.644330">
						<ele>8</ele>
						<time>2026-02-09T13:15:00Z</time>
					</trkpt>
					<trkpt lat="43.382730" lon="-1.644870">
						<ele>10</ele>
						<time>2026-02-09T13:15:13Z</time>
					</trkpt>
					<trkpt lat="43.382740" lon="-1.644940">
						<ele>10</ele>
						<time>2026-02-09T13:15:15Z</time>
					</trkpt>
					<trkpt lat="43.382650" lon="-1.644960">
						<ele>9</ele>
						<time>2026-02-09T13:15:18Z</time>
					</trkpt>
					<trkpt lat="43.382630" lon="-1.645060">
						<ele>8</ele>
						<time>2026-02-09T13:15:20Z</time>
					</trkpt>
					<trkpt lat="43.381890" lon="-1.648860">
						<ele>7</ele>
						<time>2026-02-09T13:16:56Z</time>
					</trkpt>
					<trkpt lat="43.381660" lon="-1.650040">
						<ele>7</ele>
						<time>2026-02-09T13:17:25Z</time>
					</trkpt>
					<trkpt lat="43.381340" lon="-1.651670">
						<ele>5</ele>
						<time>2026-02-09T13:18:06Z</time>
					</trkpt>
					<trkpt lat="43.381300" lon="-1.651910">
						<ele>5</ele>
						<time>2026-02-09T13:18:12Z</time>
					</trkpt>
					<trkpt lat="43.381260" lon="-1.652400">
						<ele>4</ele>
						<time>2026-02-09T13:18:24Z</time>
					</trkpt>
					<trkpt lat="43.381250" lon="-1.652860">
						<ele>3</ele>
						<time>2026-02-09T13:18:35Z</time>
					</trkpt>
					<trkpt lat="43.381260" lon="-1.653210">
						<ele>3</ele>
						<time>2026-02-09T13:18:44Z</time>
					</trkpt>
					<trkpt lat="43.381300" lon="-1.653550">
						<ele>3</ele>
						<time>2026-02-09T13:18:52Z</time>
					</trkpt>
					<trkpt lat="43.381350" lon="-1.653940">
						<ele>2</ele>
						<time>2026-02-09T13:19:02Z</time>
					</trkpt>
					<trkpt lat="43.381470" lon="-1.654450">
						<ele>3</ele>
						<time>2026-02-09T13:19:15Z</time>
					</trkpt>
					<trkpt lat="43.381490" lon="-1.654560">
						<ele>3</ele>
						<time>2026-02-09T13:19:18Z</time>
					</trkpt>
					<trkpt lat="43.381570" lon="-1.654870">
						<ele>4</ele>
						<time>2026-02-09T13:19:25Z</time>
					</trkpt>
					<trkpt lat="43.381610" lon="-1.655030">
						<ele>4</ele>
						<time>2026-02-09T13:19:30Z</time>
					</trkpt>
					<trkpt lat="43.381620" lon="-1.655080">
						<ele>4</ele>
						<time>2026-02-09T13:19:31Z</time>
					</trkpt>
					<trkpt lat="43.381810" lon="-1.655080">
						<ele>4</ele>
						<time>2026-02-09T13:19:37Z</time>
					</trkpt>
					<trkpt lat="43.381840" lon="-1.655370">
						<ele>4</ele>
						<time>2026-02-09T13:19:44Z</time>
					</trkpt>
					<trkpt lat="43.381930" lon="-1.656150">
						<ele>3</ele>
						<time>2026-02-09T13:20:03Z</time>
					</trkpt>
					<trkpt lat="43.381970" lon="-1.656480">
						<ele>3</ele>
						<time>2026-02-09T13:20:12Z</time>
					</trkpt>
					<trkpt lat="43.382030" lon="-1.656710">
						<ele>3</ele>
						<time>2026-02-09T13:20:17Z</time>
					</trkpt>
					<trkpt lat="43.382070" lon="-1.656870">
						<ele>3</ele>
						<time>2026-02-09T13:20:22Z</time>
					</trkpt>
					<trkpt lat="43.382160" lon="-1.657210">
						<ele>3</ele>
						<time>2026-02-09T13:20:30Z</time>
					</trkpt>
					<trkpt lat="43.382200" lon="-1.657370">
						<ele>3</ele>
						<time>2026-02-09T13:20:34Z</time>
					</trkpt>
					<trkpt lat="43.382650" lon="-1.659200">
						<ele>2</ele>
						<time>2026-02-09T13:21:21Z</time>
					</trkpt>
					<trkpt lat="43.382680" lon="-1.659270">
						<ele>2</ele>
						<time>2026-02-09T13:21:23Z</time>
					</trkpt>
					<trkpt lat="43.383030" lon="-1.660210">
						<ele>5</ele>
						<time>2026-02-09T13:21:49Z</time>
					</trkpt>
					<trkpt lat="43.383270" lon="-1.660870">
						<ele>6</ele>
						<time>2026-02-09T13:22:07Z</time>
					</trkpt>
					<trkpt lat="43.383420" lon="-1.661280">
						<ele>4</ele>
						<time>2026-02-09T13:22:18Z</time>
					</trkpt>
					<trkpt lat="43.383830" lon="-1.661770">
						<ele>5</ele>
						<time>2026-02-09T13:22:36Z</time>
					</trkpt>
					<trkpt lat="43.384340" lon="-1.662380">
						<ele>5</ele>
						<time>2026-02-09T13:22:59Z</time>
					</trkpt>
					<trkpt lat="43.384790" lon="-1.661560">
						<ele>5</ele>
						<time>2026-02-09T13:23:23Z</time>
					</trkpt>
					<trkpt lat="43.384790" lon="-1.661550">
						<ele>5</ele>
						<time>2026-02-09T13:23:24Z</time>
					</trkpt>
					<trkpt lat="43.384710" lon="-1.661390">
						<ele>5</ele>
						<time>2026-02-09T13:23:28Z</time>
					</trkpt>
					<trkpt lat="43.384620" lon="-1.661210">
						<ele>5</ele>
						<time>2026-02-09T13:23:34Z</time>
					</trkpt>
					<trkpt lat="43.384460" lon="-1.660950">
						<ele>5</ele>
						<time>2026-02-09T13:23:42Z</time>
					</trkpt>
					<trkpt lat="43.384310" lon="-1.660740">
						<ele>5</ele>
						<time>2026-02-09T13:23:49Z</time>
					</trkpt>
					<trkpt lat="43.383980" lon="-1.660300">
						<ele>5</ele>
						<time>2026-02-09T13:24:04Z</time>
					</trkpt>
					<trkpt lat="43.383630" lon="-1.659810">
						<ele>5</ele>
						<time>2026-02-09T13:24:21Z</time>
					</trkpt>
					<trkpt lat="43.383480" lon="-1.659610">
						<ele>6</ele>
						<time>2026-02-09T13:24:28Z</time>
					</trkpt>
					<trkpt lat="43.383400" lon="-1.659430">
						<ele>6</ele>
						<time>2026-02-09T13:24:33Z</time>
					</trkpt>
					<trkpt lat="43.383370" lon="-1.659440">
						<ele>6</ele>
						<time>2026-02-09T13:24:34Z</time>
					</trkpt>
					<trkpt lat="43.383340" lon="-1.659430">
						<ele>6</ele>
						<time>2026-02-09T13:24:35Z</time>
					</trkpt>
					<trkpt lat="43.383310" lon="-1.659400">
						<ele>6</ele>
						<time>2026-02-09T13:24:36Z</time>
					</trkpt>
					<trkpt lat="43.383290" lon="-1.659360">
						<ele>6</ele>
						<time>2026-02-09T13:24:38Z</time>
					</trkpt>
					<trkpt lat="43.383290" lon="-1.659320">
						<ele>6</ele>
						<time>2026-02-09T13:24:39Z</time>
					</trkpt>
					<trkpt lat="43.383300" lon="-1.659270">
						<ele>6</ele>
						<time>2026-02-09T13:24:40Z</time>
					</trkpt>
					<trkpt lat="43.383240" lon="-1.659230">
						<ele>6</ele>
						<time>2026-02-09T13:24:42Z</time>
					</trkpt>
					<trkpt lat="43.383140" lon="-1.659100">
						<ele>5</ele>
						<time>2026-02-09T13:24:47Z</time>
					</trkpt>
					<trkpt lat="43.383090" lon="-1.659020">
						<ele>5</ele>
						<time>2026-02-09T13:24:49Z</time>
					</trkpt>
					<trkpt lat="43.383060" lon="-1.658940">
						<ele>4</ele>
						<time>2026-02-09T13:24:51Z</time>
					</trkpt>
					<trkpt lat="43.382980" lon="-1.658770">
						<ele>4</ele>
						<time>2026-02-09T13:24:56Z</time>
					</trkpt>
					<trkpt lat="43.382750" lon="-1.658140">
						<ele>3</ele>
						<time>2026-02-09T13:25:13Z</time>
					</trkpt>
					<trkpt lat="43.382620" lon="-1.657800">
						<ele>4</ele>
						<time>2026-02-09T13:25:23Z</time>
					</trkpt>
					<trkpt lat="43.382340" lon="-1.657020">
						<ele>4</ele>
						<time>2026-02-09T13:25:44Z</time>
					</trkpt>
					<trkpt lat="43.382330" lon="-1.656950">
						<ele>4</ele>
						<time>2026-02-09T13:25:46Z</time>
					</trkpt>
					<trkpt lat="43.382340" lon="-1.656870">
						<ele>4</ele>
						<time>2026-02-09T13:25:48Z</time>
					</trkpt>
					<trkpt lat="43.382360" lon="-1.656790">
						<ele>4</ele>
						<time>2026-02-09T13:25:50Z</time>
					</trkpt>
					<trkpt lat="43.382390" lon="-1.656740">
						<ele>4</ele>
						<time>2026-02-09T13:25:51Z</time>
					</trkpt>
					<trkpt lat="43.382530" lon="-1.656540">
						<ele>4</ele>
						<time>2026-02-09T13:25:58Z</time>
					</trkpt>
					<trkpt lat="43.382800" lon="-1.656170">
						<ele>3</ele>
						<time>2026-02-09T13:26:11Z</time>
					</trkpt>
					<trkpt lat="43.382860" lon="-1.656090">
						<ele>3</ele>
						<time>2026-02-09T13:26:13Z</time>
					</trkpt>
					<trkpt lat="43.382960" lon="-1.655950">
						<ele>3</ele>
						<time>2026-02-09T13:26:18Z</time>
					</trkpt>
					<trkpt lat="43.383000" lon="-1.655910">
						<ele>3</ele>
						<time>2026-02-09T13:26:20Z</time>
					</trkpt>
					<trkpt lat="43.383080" lon="-1.655800">
						<ele>3</ele>
						<time>2026-02-09T13:26:24Z</time>
					</trkpt>
					<trkpt lat="43.383300" lon="-1.655510">
						<ele>3</ele>
						<time>2026-02-09T13:26:34Z</time>
					</trkpt>
					<trkpt lat="43.383520" lon="-1.655190">
						<ele>4</ele>
						<time>2026-02-09T13:26:44Z</time>
					</trkpt>
					<trkpt lat="43.383470" lon="-1.655130">
						<ele>4</ele>
						<time>2026-02-09T13:26:47Z</time>
					</trkpt>
					<trkpt lat="43.383450" lon="-1.655080">
						<ele>4</ele>
						<time>2026-02-09T13:26:48Z</time>
					</trkpt>
					<trkpt lat="43.383430" lon="-1.655040">
						<ele>4</ele>
						<time>2026-02-09T13:26:49Z</time>
					</trkpt>
					<trkpt lat="43.383370" lon="-1.654960">
						<ele>4</ele>
						<time>2026-02-09T13:26:52Z</time>
					</trkpt>
					<trkpt lat="43.383200" lon="-1.654720">
						<ele>4</ele>
						<time>2026-02-09T13:27:00Z</time>
					</trkpt>
					<trkpt lat="43.383210" lon="-1.654600">
						<ele>4</ele>
						<time>2026-02-09T13:27:03Z</time>
					</trkpt>
					<trkpt lat="43.383230" lon="-1.654520">
						<ele>4</ele>
						<time>2026-02-09T13:27:05Z</time>
					</trkpt>
					<trkpt lat="43.383350" lon="-1.654350">
						<ele>5</ele>
						<time>2026-02-09T13:27:11Z</time>
					</trkpt>
					<trkpt lat="43.383450" lon="-1.654220">
						<ele>5</ele>
						<time>2026-02-09T13:27:15Z</time>
					</trkpt>
					<trkpt lat="43.383630" lon="-1.653790">
						<ele>5</ele>
						<time>2026-02-09T13:27:27Z</time>
					</trkpt>
					<trkpt lat="43.383670" lon="-1.653720">
						<ele>5</ele>
						<time>2026-02-09T13:27:30Z</time>
					</trkpt>
					<trkpt lat="43.383690" lon="-1.653660">
						<ele>5</ele>
						<time>2026-02-09T13:27:31Z</time>
					</trkpt>
					<trkpt lat="43.383800" lon="-1.653440">
						<ele>6</ele>
						<time>2026-02-09T13:27:38Z</time>
					</trkpt>
					<trkpt lat="43.383870" lon="-1.653290">
						<ele>6</ele>
						<time>2026-02-09T13:27:42Z</time>
					</trkpt>
					<trkpt lat="43.383910" lon="-1.653100">
						<ele>9</ele>
						<time>2026-02-09T13:27:47Z</time>
					</trkpt>
					<trkpt lat="43.383900" lon="-1.652960">
						<ele>10</ele>
						<time>2026-02-09T13:27:50Z</time>
					</trkpt>
					<trkpt lat="43.383880" lon="-1.652850">
						<ele>11</ele>
						<time>2026-02-09T13:27:53Z</time>
					</trkpt>
					<trkpt lat="43.383840" lon="-1.652760">
						<ele>12</ele>
						<time>2026-02-09T13:27:56Z</time>
					</trkpt>
					<trkpt lat="43.383620" lon="-1.652490">
						<ele>12</ele>
						<time>2026-02-09T13:28:05Z</time>
					</trkpt>
					<trkpt lat="43.383600" lon="-1.652460">
						<ele>12</ele>
						<time>2026-02-09T13:28:06Z</time>
					</trkpt>
					<trkpt lat="43.383580" lon="-1.652480">
						<ele>12</ele>
						<time>2026-02-09T13:28:07Z</time>
					</trkpt>
					<trkpt lat="43.383470" lon="-1.652320">
						<ele>11</ele>
						<time>2026-02-09T13:28:13Z</time>
					</trkpt>
					<trkpt lat="43.383360" lon="-1.652100">
						<ele>11</ele>
						<time>2026-02-09T13:28:19Z</time>
					</trkpt>
					<trkpt lat="43.383240" lon="-1.651840">
						<ele>11</ele>
						<time>2026-02-09T13:28:26Z</time>
					</trkpt>
					<trkpt lat="43.383240" lon="-1.651740">
						<ele>11</ele>
						<time>2026-02-09T13:28:29Z</time>
					</trkpt>
					<trkpt lat="43.382980" lon="-1.651740">
						<ele>9</ele>
						<time>2026-02-09T13:28:38Z</time>
					</trkpt>
					<trkpt lat="43.382970" lon="-1.651480">
						<ele>9</ele>
						<time>2026-02-09T13:28:44Z</time>
					</trkpt>
					<trkpt lat="43.382970" lon="-1.651310">
						<ele>10</ele>
						<time>2026-02-09T13:28:48Z</time>
					</trkpt>
					<trkpt lat="43.382690" lon="-1.650580">
						<ele>8</ele>
						<time>2026-02-09T13:29:08Z</time>
					</trkpt>
					<trkpt lat="43.382550" lon="-1.650370">
						<ele>7</ele>
						<time>2026-02-09T13:29:15Z</time>
					</trkpt>
					<trkpt lat="43.382600" lon="-1.650300">
						<ele>7</ele>
						<time>2026-02-09T13:29:17Z</time>
					</trkpt>
					<trkpt lat="43.382570" lon="-1.650240">
						<ele>7</ele>
						<time>2026-02-09T13:29:19Z</time>
					</trkpt>
					<trkpt lat="43.382580" lon="-1.650210">
						<ele>7</ele>
						<time>2026-02-09T13:29:20Z</time>
					</trkpt>
					<trkpt lat="43.382630" lon="-1.650060">
						<ele>8</ele>
						<time>2026-02-09T13:29:24Z</time>
					</trkpt>
					<trkpt lat="43.382640" lon="-1.650010">
						<ele>8</ele>
						<time>2026-02-09T13:29:25Z</time>
					</trkpt>
					<trkpt lat="43.382560" lon="-1.649790">
						<ele>8</ele>
						<time>2026-02-09T13:29:31Z</time>
					</trkpt>
					<trkpt lat="43.382530" lon="-1.649680">
						<ele>8</ele>
						<time>2026-02-09T13:29:34Z</time>
					</trkpt>
					<trkpt lat="43.382500" lon="-1.649570">
						<ele>8</ele>
						<time>2026-02-09T13:29:37Z</time>
					</trkpt>
					<trkpt lat="43.382470" lon="-1.649360">
						<ele>8</ele>
						<time>2026-02-09T13:29:42Z</time>
					</trkpt>
					<trkpt lat="43.382470" lon="-1.649160">
						<ele>8</ele>
						<time>2026-02-09T13:29:47Z</time>
					</trkpt>
					<trkpt lat="43.382480" lon="-1.648900">
						<ele>8</ele>
						<time>2026-02-09T13:29:53Z</time>
					</trkpt>
					<trkpt lat="43.382490" lon="-1.648810">
						<ele>8</ele>
						<time>2026-02-09T13:29:55Z</time>
					</trkpt>
					<trkpt lat="43.382500" lon="-1.648670">
						<ele>9</ele>
						<time>2026-02-09T13:29:59Z</time>
					</trkpt>
					<trkpt lat="43.382560" lon="-1.648050">
						<ele>8</ele>
						<time>2026-02-09T13:30:14Z</time>
					</trkpt>
					<trkpt lat="43.382570" lon="-1.647950">
						<ele>8</ele>
						<time>2026-02-09T13:30:16Z</time>
					</trkpt>
					<trkpt lat="43.382580" lon="-1.647880">
						<ele>8</ele>
						<time>2026-02-09T13:30:18Z</time>
					</trkpt>
					<trkpt lat="43.382680" lon="-1.646840">
						<ele>6</ele>
						<time>2026-02-09T13:30:44Z</time>
					</trkpt>
					<trkpt lat="43.382740" lon="-1.646250">
						<ele>7</ele>
						<time>2026-02-09T13:30:58Z</time>
					</trkpt>
					<trkpt lat="43.382750" lon="-1.645760">
						<ele>8</ele>
						<time>2026-02-09T13:31:10Z</time>
					</trkpt>
					<trkpt lat="43.382740" lon="-1.645050">
						<ele>10</ele>
						<time>2026-02-09T13:31:27Z</time>
					</trkpt>
					<trkpt lat="43.382740" lon="-1.645020">
						<ele>10</ele>
						<time>2026-02-09T13:31:28Z</time>
					</trkpt>
					<trkpt lat="43.382740" lon="-1.644940">
						<ele>10</ele>
						<time>2026-02-09T13:31:30Z</time>
					</trkpt>
					<trkpt lat="43.382730" lon="-1.644870">
						<ele>10</ele>
						<time>2026-02-09T13:31:31Z</time>
					</trkpt>
					<trkpt lat="43.382690" lon="-1.644330">
						<ele>8</ele>
						<time>2026-02-09T13:31:45Z</time>
					</trkpt>
					<trkpt lat="43.382660" lon="-1.644150">
						<ele>8</ele>
						<time>2026-02-09T13:31:49Z</time>
					</trkpt>
					<trkpt lat="43.382610" lon="-1.643850">
						<ele>7</ele>
						<time>2026-02-09T13:31:57Z</time>
					</trkpt>
					<trkpt lat="43.382530" lon="-1.643610">
						<ele>6</ele>
						<time>2026-02-09T13:32:03Z</time>
					</trkpt>
					<trkpt lat="43.382400" lon="-1.643320">
						<ele>5</ele>
						<time>2026-02-09T13:32:11Z</time>
					</trkpt>
					<trkpt lat="43.382230" lon="-1.643050">
						<ele>5</ele>
						<time>2026-02-09T13:32:20Z</time>
					</trkpt>
					<trkpt lat="43.381960" lon="-1.642760">
						<ele>5</ele>
						<time>2026-02-09T13:32:31Z</time>
					</trkpt>
					<trkpt lat="43.381560" lon="-1.642390">
						<ele>5</ele>
						<time>2026-02-09T13:32:47Z</time>
					</trkpt>
					<trkpt lat="43.381270" lon="-1.642110">
						<ele>6</ele>
						<time>2026-02-09T13:32:59Z</time>
					</trkpt>
					<trkpt lat="43.381180" lon="-1.641980">
						<ele>6</ele>
						<time>2026-02-09T13:33:04Z</time>
					</trkpt>
					<trkpt lat="43.381030" lon="-1.641650">
						<ele>7</ele>
						<time>2026-02-09T13:33:13Z</time>
					</trkpt>
					<trkpt lat="43.380640" lon="-1.640800">
						<ele>8</ele>
						<time>2026-02-09T13:33:37Z</time>
					</trkpt>
					<trkpt lat="43.380570" lon="-1.640690">
						<ele>9</ele>
						<time>2026-02-09T13:33:41Z</time>
					</trkpt>
					<trkpt lat="43.380510" lon="-1.640600">
						<ele>9</ele>
						<time>2026-02-09T13:33:44Z</time>
					</trkpt>
					<trkpt lat="43.379920" lon="-1.640030">
						<ele>8</ele>
						<time>2026-02-09T13:34:08Z</time>
					</trkpt>
					<trkpt lat="43.379490" lon="-1.639620">
						<ele>7</ele>
						<time>2026-02-09T13:34:25Z</time>
					</trkpt>
					<trkpt lat="43.379070" lon="-1.639230">
						<ele>6</ele>
						<time>2026-02-09T13:34:42Z</time>
					</trkpt>
					<trkpt lat="43.379040" lon="-1.639200">
						<ele>6</ele>
						<time>2026-02-09T13:34:44Z</time>
					</trkpt>
					<trkpt lat="43.378330" lon="-1.638520">
						<ele>7</ele>
						<time>2026-02-09T13:35:12Z</time>
					</trkpt>
					<trkpt lat="43.379040" lon="-1.639200">
						<ele>6</ele>
						<time>2026-02-09T13:35:41Z</time>
					</trkpt>
					<trkpt lat="43.379070" lon="-1.639230">
						<ele>6</ele>
						<time>2026-02-09T13:35:43Z</time>
					</trkpt>
					<trkpt lat="43.379490" lon="-1.639620">
						<ele>7</ele>
						<time>2026-02-09T13:35:59Z</time>
					</trkpt>
					<trkpt lat="43.379920" lon="-1.640030">
						<ele>8</ele>
						<time>2026-02-09T13:36:17Z</time>
					</trkpt>
					<trkpt lat="43.380510" lon="-1.640600">
						<ele>9</ele>
						<time>2026-02-09T13:36:41Z</time>
					</trkpt>
					<trkpt lat="43.380570" lon="-1.640690">
						<ele>9</ele>
						<time>2026-02-09T13:36:44Z</time>
					</trkpt>
					<trkpt lat="43.380640" lon="-1.640800">
						<ele>8</ele>
						<time>2026-02-09T13:36:47Z</time>
					</trkpt>
					<trkpt lat="43.381030" lon="-1.641650">
						<ele>7</ele>
						<time>2026-02-09T13:37:12Z</time>
					</trkpt>
					<trkpt lat="43.381180" lon="-1.641980">
						<ele>6</ele>
						<time>2026-02-09T13:37:21Z</time>
					</trkpt>
					<trkpt lat="43.381270" lon="-1.642110">
						<ele>6</ele>
						<time>2026-02-09T13:37:26Z</time>
					</trkpt>
					<trkpt lat="43.381560" lon="-1.642390">
						<ele>5</ele>
						<time>2026-02-09T13:37:37Z</time>
					</trkpt>
					<trkpt lat="43.381960" lon="-1.642760">
						<ele>5</ele>
						<time>2026-02-09T13:37:53Z</time>
					</trkpt>
					<trkpt lat="43.382230" lon="-1.643050">
						<ele>5</ele>
						<time>2026-02-09T13:38:05Z</time>
					</trkpt>
					<trkpt lat="43.382400" lon="-1.643320">
						<ele>5</ele>
						<time>2026-02-09T13:38:14Z</time>
					</trkpt>
					<trkpt lat="43.382530" lon="-1.643610">
						<ele>6</ele>
						<time>2026-02-09T13:38:22Z</time>
					</trkpt>
					<trkpt lat="43.382610" lon="-1.643850">
						<ele>7</ele>
						<time>2026-02-09T13:38:28Z</time>
					</trkpt>
					<trkpt lat="43.382660" lon="-1.644150">
						<ele>8</ele>
						<time>2026-02-09T13:38:36Z</time>
					</trkpt>
					<trkpt lat="43.382690" lon="-1.644330">
						<ele>8</ele>
						<time>2026-02-09T13:38:40Z</time>
					</trkpt>
					<trkpt lat="43.382730" lon="-1.644870">
						<ele>10</ele>
						<time>2026-02-09T13:38:53Z</time>
					</trkpt>
					<trkpt lat="43.382740" lon="-1.644940">
						<ele>10</ele>
						<time>2026-02-09T13:38:55Z</time>
					</trkpt>
					<trkpt lat="43.382650" lon="-1.644960">
						<ele>9</ele>
						<time>2026-02-09T13:38:58Z</time>
					</trkpt>
					<trkpt lat="43.382630" lon="-1.645060">
						<ele>8</ele>
						<time>2026-02-09T13:39:01Z</time>
					</trkpt>
					<trkpt lat="43.381890" lon="-1.648860">
						<ele>7</ele>
						<time>2026-02-09T13:40:36Z</time>
					</trkpt>
					<trkpt lat="43.381660" lon="-1.650040">
						<ele>7</ele>
						<time>2026-02-09T13:41:06Z</time>
					</trkpt>
					<trkpt lat="43.381340" lon="-1.651670">
						<ele>5</ele>
						<time>2026-02-09T13:41:47Z</time>
					</trkpt>
					<trkpt lat="43.381300" lon="-1.651910">
						<ele>5</ele>
						<time>2026-02-09T13:41:53Z</time>
					</trkpt>
					<trkpt lat="43.381260" lon="-1.652400">
						<ele>4</ele>
						<time>2026-02-09T13:42:05Z</time>
					</trkpt>
					<trkpt lat="43.381250" lon="-1.652860">
						<ele>3</ele>
						<time>2026-02-09T13:42:16Z</time>
					</trkpt>
					<trkpt lat="43.381260" lon="-1.653210">
						<ele>3</ele>
						<time>2026-02-09T13:42:24Z</time>
					</trkpt>
					<trkpt lat="43.381300" lon="-1.653550">
						<ele>3</ele>
						<time>2026-02-09T13:42:33Z</time>
					</trkpt>
					<trkpt lat="43.381350" lon="-1.653940">
						<ele>2</ele>
						<time>2026-02-09T13:42:42Z</time>
					</trkpt>
					<trkpt lat="43.381470" lon="-1.654450">
						<ele>3</ele>
						<time>2026-02-09T13:42:55Z</time>
					</trkpt>
					<trkpt lat="43.381490" lon="-1.654560">
						<ele>3</ele>
						<time>2026-02-09T13:42:58Z</time>
					</trkpt>
					<trkpt lat="43.381570" lon="-1.654870">
						<ele>4</ele>
						<time>2026-02-09T13:43:06Z</time>
					</trkpt>
					<trkpt lat="43.381610" lon="-1.655030">
						<ele>4</ele>
						<time>2026-02-09T13:43:10Z</time>
					</trkpt>
					<trkpt lat="43.381620" lon="-1.655080">
						<ele>4</ele>
						<time>2026-02-09T13:43:11Z</time>
					</trkpt>
					<trkpt lat="43.381810" lon="-1.655080">
						<ele>4</ele>
						<time>2026-02-09T13:43:18Z</time>
					</trkpt>
					<trkpt lat="43.381840" lon="-1.655370">
						<ele>4</ele>
						<time>2026-02-09T13:43:25Z</time>
					</trkpt>
					<trkpt lat="43.381930" lon="-1.656150">
						<ele>3</ele>
						<time>2026-02-09T13:43:44Z</time>
					</trkpt>
					<trkpt lat="43.381970" lon="-1.656480">
						<ele>3</ele>
						<time>2026-02-09T13:43:52Z</time>
					</trkpt>
					<trkpt lat="43.382030" lon="-1.656710">
						<ele>3</ele>
						<time>2026-02-09T13:43:58Z</time>
					</trkpt>
					<trkpt lat="43.382070" lon="-1.656870">
						<ele>3</ele>
						<time>2026-02-09T13:44:02Z</time>
					</trkpt>
					<trkpt lat="43.382160" lon="-1.657210">
						<ele>3</ele>
						<time>2026-02-09T13:44:11Z</time>
					</trkpt>
					<trkpt lat="43.382200" lon="-1.657370">
						<ele>3</ele>
						<time>2026-02-09T13:44:15Z</time>
					</trkpt>
					<trkpt lat="43.382650" lon="-1.659200">
						<ele>2</ele>
						<time>2026-02-09T13:45:02Z</time>
					</trkpt>
					<trkpt lat="43.382680" lon="-1.659270">
						<ele>2</ele>
						<time>2026-02-09T13:45:04Z</time>
					</trkpt>
					<trkpt lat="43.383030" lon="-1.660210">
						<ele>5</ele>
						<time>2026-02-09T13:45:29Z</time>
					</trkpt>
					<trkpt lat="43.383270" lon="-1.660870">
						<ele>6</ele>
						<time>2026-02-09T13:45:47Z</time>
					</trkpt>
					<trkpt lat="43.383420" lon="-1.661280">
						<ele>4</ele>
						<time>2026-02-09T13:45:58Z</time>
					</trkpt>
					<trkpt lat="43.383830" lon="-1.661770">
						<ele>5</ele>
						<time>2026-02-09T13:46:16Z</time>
					</trkpt>
					<trkpt lat="43.384330" lon="-1.662360">
						<ele>5</ele>
						<time>2026-02-09T13:46:38Z</time>
					</trkpt>
					<trkpt lat="43.384780" lon="-1.661510">
						<ele>5</ele>
						<time>2026-02-09T13:47:04Z</time>
					</trkpt>
					<trkpt lat="43.384710" lon="-1.661390">
						<ele>5</ele>
						<time>2026-02-09T13:47:08Z</time>
					</trkpt>
					<trkpt lat="43.384620" lon="-1.661210">
						<ele>5</ele>
						<time>2026-02-09T13:47:13Z</time>
					</trkpt>
					<trkpt lat="43.384460" lon="-1.660950">
						<ele>5</ele>
						<time>2026-02-09T13:47:21Z</time>
					</trkpt>
					<trkpt lat="43.384310" lon="-1.660740">
						<ele>5</ele>
						<time>2026-02-09T13:47:28Z</time>
					</trkpt>
					<trkpt lat="43.383980" lon="-1.660300">
						<ele>5</ele>
						<time>2026-02-09T13:47:44Z</time>
					</trkpt>
					<trkpt lat="43.383630" lon="-1.659810">
						<ele>5</ele>
						<time>2026-02-09T13:48:00Z</time>
					</trkpt>
					<trkpt lat="43.383480" lon="-1.659610">
						<ele>6</ele>
						<time>2026-02-09T13:48:07Z</time>
					</trkpt>
					<trkpt lat="43.383400" lon="-1.659430">
						<ele>6</ele>
						<time>2026-02-09T13:48:12Z</time>
					</trkpt>
					<trkpt lat="43.383370" lon="-1.659440">
						<ele>6</ele>
						<time>2026-02-09T13:48:13Z</time>
					</trkpt>
					<trkpt lat="43.383340" lon="-1.659430">
						<ele>6</ele>
						<time>2026-02-09T13:48:14Z</time>
					</trkpt>
					<trkpt lat="43.383310" lon="-1.659400">
						<ele>6</ele>
						<time>2026-02-09T13:48:16Z</time>
					</trkpt>
					<trkpt lat="43.383290" lon="-1.659360">
						<ele>6</ele>
						<time>2026-02-09T13:48:17Z</time>
					</trkpt>
					<trkpt lat="43.383290" lon="-1.659320">
						<ele>6</ele>
						<time>2026-02-09T13:48:18Z</time>
					</trkpt>
					<trkpt lat="43.383300" lon="-1.659270">
						<ele>6</ele>
						<time>2026-02-09T13:48:19Z</time>
					</trkpt>
					<trkpt lat="43.383240" lon="-1.659230">
						<ele>6</ele>
						<time>2026-02-09T13:48:21Z</time>
					</trkpt>
					<trkpt lat="43.383140" lon="-1.659100">
						<ele>5</ele>
						<time>2026-02-09T13:48:26Z</time>
					</trkpt>
					<trkpt lat="43.383090" lon="-1.659020">
						<ele>5</ele>
						<time>2026-02-09T13:48:28Z</time>
					</trkpt>
					<trkpt lat="43.383060" lon="-1.658940">
						<ele>4</ele>
						<time>2026-02-09T13:48:31Z</time>
					</trkpt>
					<trkpt lat="43.382980" lon="-1.658770">
						<ele>4</ele>
						<time>2026-02-09T13:48:36Z</time>
					</trkpt>
					<trkpt lat="43.382750" lon="-1.658140">
						<ele>3</ele>
						<time>2026-02-09T13:48:53Z</time>
					</trkpt>
					<trkpt lat="43.382620" lon="-1.657800">
						<ele>4</ele>
						<time>2026-02-09T13:49:02Z</time>
					</trkpt>
					<trkpt lat="43.382340" lon="-1.657020">
						<ele>4</ele>
						<time>2026-02-09T13:49:23Z</time>
					</trkpt>
					<trkpt lat="43.382330" lon="-1.656950">
						<ele>4</ele>
						<time>2026-02-09T13:49:25Z</time>
					</trkpt>
					<trkpt lat="43.382340" lon="-1.656870">
						<ele>4</ele>
						<time>2026-02-09T13:49:27Z</time>
					</trkpt>
					<trkpt lat="43.382360" lon="-1.656790">
						<ele>4</ele>
						<time>2026-02-09T13:49:29Z</time>
					</trkpt>
					<trkpt lat="43.382520" lon="-1.656550">
						<ele>4</ele>
						<time>2026-02-09T13:49:37Z</time>
					</trkpt>
					<trkpt lat="43.382530" lon="-1.656540">
						<ele>4</ele>
						<time>2026-02-09T13:49:37Z</time>
					</trkpt>
					<trkpt lat="43.382800" lon="-1.656170">
						<ele>3</ele>
						<time>2026-02-09T13:49:50Z</time>
					</trkpt>
					<trkpt lat="43.382860" lon="-1.656090">
						<ele>3</ele>
						<time>2026-02-09T13:49:53Z</time>
					</trkpt>
					<trkpt lat="43.382960" lon="-1.655950">
						<ele>3</ele>
						<time>2026-02-09T13:49:57Z</time>
					</trkpt>
					<trkpt lat="43.383000" lon="-1.655910">
						<ele>3</ele>
						<time>2026-02-09T13:49:59Z</time>
					</trkpt>
					<trkpt lat="43.383080" lon="-1.655800">
						<ele>3</ele>
						<time>2026-02-09T13:50:03Z</time>
					</trkpt>
					<trkpt lat="43.383300" lon="-1.655510">
						<ele>3</ele>
						<time>2026-02-09T13:50:13Z</time>
					</trkpt>
					<trkpt lat="43.383520" lon="-1.655190">
						<ele>4</ele>
						<time>2026-02-09T13:50:24Z</time>
					</trkpt>
					<trkpt lat="43.383470" lon="-1.655130">
						<ele>4</ele>
						<time>2026-02-09T13:50:26Z</time>
					</trkpt>
					<trkpt lat="43.383450" lon="-1.655080">
						<ele>4</ele>
						<time>2026-02-09T13:50:27Z</time>
					</trkpt>
					<trkpt lat="43.383430" lon="-1.655040">
						<ele>4</ele>
						<time>2026-02-09T13:50:28Z</time>
					</trkpt>
					<trkpt lat="43.383370" lon="-1.654960">
						<ele>4</ele>
						<time>2026-02-09T13:50:31Z</time>
					</trkpt>
					<trkpt lat="43.383200" lon="-1.654720">
						<ele>4</ele>
						<time>2026-02-09T13:50:39Z</time>
					</trkpt>
					<trkpt lat="43.383210" lon="-1.654600">
						<ele>4</ele>
						<time>2026-02-09T13:50:42Z</time>
					</trkpt>
					<trkpt lat="43.383230" lon="-1.654520">
						<ele>4</ele>
						<time>2026-02-09T13:50:44Z</time>
					</trkpt>
					<trkpt lat="43.383350" lon="-1.654350">
						<ele>5</ele>
						<time>2026-02-09T13:50:50Z</time>
					</trkpt>
					<trkpt lat="43.383450" lon="-1.654220">
						<ele>5</ele>
						<time>2026-02-09T13:50:55Z</time>
					</trkpt>
					<trkpt lat="43.383630" lon="-1.653790">
						<ele>5</ele>
						<time>2026-02-09T13:51:07Z</time>
					</trkpt>
					<trkpt lat="43.383670" lon="-1.653720">
						<ele>5</ele>
						<time>2026-02-09T13:51:09Z</time>
					</trkpt>
					<trkpt lat="43.383690" lon="-1.653660">
						<ele>5</ele>
						<time>2026-02-09T13:51:10Z</time>
					</trkpt>
					<trkpt lat="43.383800" lon="-1.653440">
						<ele>6</ele>
						<time>2026-02-09T13:51:17Z</time>
					</trkpt>
					<trkpt lat="43.383870" lon="-1.653290">
						<ele>6</ele>
						<time>2026-02-09T13:51:21Z</time>
					</trkpt>
					<trkpt lat="43.383910" lon="-1.653100">
						<ele>9</ele>
						<time>2026-02-09T13:51:26Z</time>
					</trkpt>
					<trkpt lat="43.383900" lon="-1.652960">
						<ele>10</ele>
						<time>2026-02-09T13:51:29Z</time>
					</trkpt>
					<trkpt lat="43.383880" lon="-1.652850">
						<ele>11</ele>
						<time>2026-02-09T13:51:32Z</time>
					</trkpt>
					<trkpt lat="43.383840" lon="-1.652760">
						<ele>12</ele>
						<time>2026-02-09T13:51:35Z</time>
					</trkpt>
					<trkpt lat="43.383780" lon="-1.652690">
						<ele>12</ele>
						<time>2026-02-09T13:51:37Z</time>
					</trkpt>
					<trkpt lat="43.383600" lon="-1.652460">
						<ele>12</ele>
						<time>2026-02-09T13:51:46Z</time>
					</trkpt>
					<trkpt lat="43.383580" lon="-1.652480">
						<ele>12</ele>
						<time>2026-02-09T13:51:46Z</time>
					</trkpt>
					<trkpt lat="43.383470" lon="-1.652320">
						<ele>11</ele>
						<time>2026-02-09T13:51:52Z</time>
					</trkpt>
					<trkpt lat="43.383360" lon="-1.652100">
						<ele>11</ele>
						<time>2026-02-09T13:51:58Z</time>
					</trkpt>
					<trkpt lat="43.383240" lon="-1.651840">
						<ele>11</ele>
						<time>2026-02-09T13:52:06Z</time>
					</trkpt>
					<trkpt lat="43.383240" lon="-1.651740">
						<ele>11</ele>
						<time>2026-02-09T13:52:08Z</time>
					</trkpt>
					<trkpt lat="43.382980" lon="-1.651740">
						<ele>9</ele>
						<time>2026-02-09T13:52:17Z</time>
					</trkpt>
					<trkpt lat="43.382970" lon="-1.651480">
						<ele>9</ele>
						<time>2026-02-09T13:52:23Z</time>
					</trkpt>
					<trkpt lat="43.382970" lon="-1.651310">
						<ele>10</ele>
						<time>2026-02-09T13:52:27Z</time>
					</trkpt>
					<trkpt lat="43.382690" lon="-1.650580">
						<ele>8</ele>
						<time>2026-02-09T13:52:47Z</time>
					</trkpt>
					<trkpt lat="43.382550" lon="-1.650370">
						<ele>7</ele>
						<time>2026-02-09T13:52:54Z</time>
					</trkpt>
					<trkpt lat="43.382600" lon="-1.650300">
						<ele>7</ele>
						<time>2026-02-09T13:52:56Z</time>
					</trkpt>
					<trkpt lat="43.382570" lon="-1.650240">
						<ele>7</ele>
						<time>2026-02-09T13:52:58Z</time>
					</trkpt>
					<trkpt lat="43.382580" lon="-1.650210">
						<ele>7</ele>
						<time>2026-02-09T13:52:59Z</time>
					</trkpt>
					<trkpt lat="43.382630" lon="-1.650060">
						<ele>8</ele>
						<time>2026-02-09T13:53:03Z</time>
					</trkpt>
					<trkpt lat="43.382640" lon="-1.650010">
						<ele>8</ele>
						<time>2026-02-09T13:53:04Z</time>
					</trkpt>
					<trkpt lat="43.382560" lon="-1.649790">
						<ele>8</ele>
						<time>2026-02-09T13:53:10Z</time>
					</trkpt>
					<trkpt lat="43.382530" lon="-1.649680">
						<ele>8</ele>
						<time>2026-02-09T13:53:13Z</time>
					</trkpt>
					<trkpt lat="43.382500" lon="-1.649570">
						<ele>8</ele>
						<time>2026-02-09T13:53:16Z</time>
					</trkpt>
					<trkpt lat="43.382470" lon="-1.649360">
						<ele>8</ele>
						<time>2026-02-09T13:53:21Z</time>
					</trkpt>
					<trkpt lat="43.382470" lon="-1.649160">
						<ele>8</ele>
						<time>2026-02-09T13:53:26Z</time>
					</trkpt>
					<trkpt lat="43.382480" lon="-1.648900">
						<ele>8</ele>
						<time>2026-02-09T13:53:32Z</time>
					</trkpt>
					<trkpt lat="43.382490" lon="-1.648810">
						<ele>8</ele>
						<time>2026-02-09T13:53:35Z</time>
					</trkpt>
					<trkpt lat="43.382500" lon="-1.648670">
						<ele>9</ele>
						<time>2026-02-09T13:53:38Z</time>
					</trkpt>
					<trkpt lat="43.382560" lon="-1.648050">
						<ele>8</ele>
						<time>2026-02-09T13:53:53Z</time>
					</trkpt>
					<trkpt lat="43.382570" lon="-1.647950">
						<ele>8</ele>
						<time>2026-02-09T13:53:56Z</time>
					</trkpt>
					<trkpt lat="43.382580" lon="-1.647880">
						<ele>8</ele>
						<time>2026-02-09T13:53:57Z</time>
					</trkpt>
					<trkpt lat="43.382680" lon="-1.646840">
						<ele>6</ele>
						<time>2026-02-09T13:54:23Z</time>
					</trkpt>
					<trkpt lat="43.382740" lon="-1.646250">
						<ele>7</ele>
						<time>2026-02-09T13:54:37Z</time>
					</trkpt>
					<trkpt lat="43.382750" lon="-1.645760">
						<ele>8</ele>
						<time>2026-02-09T13:54:49Z</time>
					</trkpt>
					<trkpt lat="43.382740" lon="-1.645050">
						<ele>10</ele>
						<time>2026-02-09T13:55:06Z</time>
					</trkpt>
					<trkpt lat="43.382740" lon="-1.645020">
						<ele>10</ele>
						<time>2026-02-09T13:55:07Z</time>
					</trkpt>
					<trkpt lat="43.382740" lon="-1.644940">
						<ele>10</ele>
						<time>2026-02-09T13:55:09Z</time>
					</trkpt>
					<trkpt lat="43.382730" lon="-1.644870">
						<ele>10</ele>
						<time>2026-02-09T13:55:11Z</time>
					</trkpt>
					<trkpt lat="43.382690" lon="-1.644330">
						<ele>8</ele>
						<time>2026-02-09T13:55:24Z</time>
					</trkpt>
					<trkpt lat="43.382660" lon="-1.644150">
						<ele>8</ele>
						<time>2026-02-09T13:55:28Z</time>
					</trkpt>
					<trkpt lat="43.382610" lon="-1.643850">
						<ele>7</ele>
						<time>2026-02-09T13:55:36Z</time>
					</trkpt>
					<trkpt lat="43.382530" lon="-1.643610">
						<ele>6</ele>
						<time>2026-02-09T13:55:42Z</time>
					</trkpt>
					<trkpt lat="43.382400" lon="-1.643320">
						<ele>5</ele>
						<time>2026-02-09T13:55:50Z</time>
					</trkpt>
					<trkpt lat="43.382230" lon="-1.643050">
						<ele>5</ele>
						<time>2026-02-09T13:55:59Z</time>
					</trkpt>
					<trkpt lat="43.381960" lon="-1.642760">
						<ele>5</ele>
						<time>2026-02-09T13:56:11Z</time>
					</trkpt>
					<trkpt lat="43.381560" lon="-1.642390">
						<ele>5</ele>
						<time>2026-02-09T13:56:27Z</time>
					</trkpt>
					<trkpt lat="43.381270" lon="-1.642110">
						<ele>6</ele>
						<time>2026-02-09T13:56:38Z</time>
					</trkpt>
					<trkpt lat="43.381180" lon="-1.641980">
						<ele>6</ele>
						<time>2026-02-09T13:56:43Z</time>
					</trkpt>
					<trkpt lat="43.381030" lon="-1.641650">
						<ele>7</ele>
						<time>2026-02-09T13:56:52Z</time>
					</trkpt>
					<trkpt lat="43.380640" lon="-1.640800">
						<ele>8</ele>
						<time>2026-02-09T13:57:17Z</time>
					</trkpt>
					<trkpt lat="43.380570" lon="-1.640690">
						<ele>9</ele>
						<time>2026-02-09T13:57:20Z</time>
					</trkpt>
					<trkpt lat="43.380510" lon="-1.640600">
						<ele>9</ele>
						<time>2026-02-09T13:57:23Z</time>
					</trkpt>
					<trkpt lat="43.379920" lon="-1.640030">
						<ele>8</ele>
						<time>2026-02-09T13:57:47Z</time>
					</trkpt>
					<trkpt lat="43.379490" lon="-1.639620">
						<ele>7</ele>
						<time>2026-02-09T13:58:05Z</time>
					</trkpt>
					<trkpt lat="43.379070" lon="-1.639230">
						<ele>6</ele>
						<time>2026-02-09T13:58:21Z</time>
					</trkpt>
					<trkpt lat="43.379040" lon="-1.639200">
						<ele>6</ele>
						<time>2026-02-09T13:58:23Z</time>
					</trkpt>
					<trkpt lat="43.378470" lon="-1.638650">
						<ele>6</ele>
						<time>2026-02-09T13:58:46Z</time>
					</trkpt>
					<trkpt lat="43.379040" lon="-1.639200">
						<ele>6</ele>
						<time>2026-02-09T13:59:09Z</time>
					</trkpt>
					<trkpt lat="43.379070" lon="-1.639230">
						<ele>6</ele>
						<time>2026-02-09T13:59:10Z</time>
					</trkpt>
					<trkpt lat="43.379490" lon="-1.639620">
						<ele>7</ele>
						<time>2026-02-09T13:59:27Z</time>
					</trkpt>
					<trkpt lat="43.379920" lon="-1.640030">
						<ele>8</ele>
						<time>2026-02-09T13:59:45Z</time>
					</trkpt>
					<trkpt lat="43.380510" lon="-1.640600">
						<ele>9</ele>
						<time>2026-02-09T14:00:09Z</time>
					</trkpt>
					<trkpt lat="43.380570" lon="-1.640690">
						<ele>9</ele>
						<time>2026-02-09T14:00:12Z</time>
					</trkpt>
					<trkpt lat="43.380640" lon="-1.640800">
						<ele>8</ele>
						<time>2026-02-09T14:00:15Z</time>
					</trkpt>
					<trkpt lat="43.381030" lon="-1.641650">
						<ele>7</ele>
						<time>2026-02-09T14:00:40Z</time>
					</trkpt>
					<trkpt lat="43.381180" lon="-1.641980">
						<ele>6</ele>
						<time>2026-02-09T14:00:49Z</time>
					</trkpt>
					<trkpt lat="43.381270" lon="-1.642110">
						<ele>6</ele>
						<time>2026-02-09T14:00:53Z</time>
					</trkpt>
					<trkpt lat="43.381560" lon="-1.642390">
						<ele>5</ele>
						<time>2026-02-09T14:01:05Z</time>
					</trkpt>
					<trkpt lat="43.381960" lon="-1.642760">
						<ele>5</ele>
						<time>2026-02-09T14:01:21Z</time>
					</trkpt>
					<trkpt lat="43.382230" lon="-1.643050">
						<ele>5</ele>
						<time>2026-02-09T14:01:33Z</time>
					</trkpt>
					<trkpt lat="43.382400" lon="-1.643320">
						<ele>5</ele>
						<time>2026-02-09T14:01:41Z</time>
					</trkpt>
					<trkpt lat="43.382530" lon="-1.643610">
						<ele>6</ele>
						<time>2026-02-09T14:01:50Z</time>
					</trkpt>
					<trkpt lat="43.382610" lon="-1.643850">
						<ele>7</ele>
						<time>2026-02-09T14:01:56Z</time>
					</trkpt>
					<trkpt lat="43.382660" lon="-1.644150">
						<ele>8</ele>
						<time>2026-02-09T14:02:04Z</time>
					</trkpt>
					<trkpt lat="43.382690" lon="-1.644330">
						<ele>8</ele>
						<time>2026-02-09T14:02:08Z</time>
					</trkpt>
					<trkpt lat="43.382730" lon="-1.644870">
						<ele>10</ele>
						<time>2026-02-09T14:02:21Z</time>
					</trkpt>
					<trkpt lat="43.382740" lon="-1.644940">
						<ele>10</ele>
						<time>2026-02-09T14:02:23Z</time>
					</trkpt>
					<trkpt lat="43.382650" lon="-1.644960">
						<ele>9</ele>
						<time>2026-02-09T14:02:26Z</time>
					</trkpt>
					<trkpt lat="43.382630" lon="-1.645060">
						<ele>8</ele>
						<time>2026-02-09T14:02:29Z</time>
					</trkpt>
					<trkpt lat="43.381890" lon="-1.648860">
						<ele>7</ele>
						<time>2026-02-09T14:04:04Z</time>
					</trkpt>
					<trkpt lat="43.381660" lon="-1.650040">
						<ele>7</ele>
						<time>2026-02-09T14:04:34Z</time>
					</trkpt>
					<trkpt lat="43.381340" lon="-1.651670">
						<ele>5</ele>
						<time>2026-02-09T14:05:14Z</time>
					</trkpt>
					<trkpt lat="43.381300" lon="-1.651910">
						<ele>5</ele>
						<time>2026-02-09T14:05:20Z</time>
					</trkpt>
					<trkpt lat="43.381260" lon="-1.652400">
						<ele>4</ele>
						<time>2026-02-09T14:05:32Z</time>
					</trkpt>
					<trkpt lat="43.381250" lon="-1.652860">
						<ele>3</ele>
						<time>2026-02-09T14:05:44Z</time>
					</trkpt>
					<trkpt lat="43.381260" lon="-1.653210">
						<ele>3</ele>
						<time>2026-02-09T14:05:52Z</time>
					</trkpt>
					<trkpt lat="43.381300" lon="-1.653550">
						<ele>3</ele>
						<time>2026-02-09T14:06:00Z</time>
					</trkpt>
					<trkpt lat="43.381350" lon="-1.653940">
						<ele>2</ele>
						<time>2026-02-09T14:06:10Z</time>
					</trkpt>
					<trkpt lat="43.381470" lon="-1.654450">
						<ele>3</ele>
						<time>2026-02-09T14:06:23Z</time>
					</trkpt>
					<trkpt lat="43.381490" lon="-1.654560">
						<ele>3</ele>
						<time>2026-02-09T14:06:26Z</time>
					</trkpt>
					<trkpt lat="43.381570" lon="-1.654870">
						<ele>4</ele>
						<time>2026-02-09T14:06:34Z</time>
					</trkpt>
					<trkpt lat="43.381610" lon="-1.655030">
						<ele>4</ele>
						<time>2026-02-09T14:06:38Z</time>
					</trkpt>
					<trkpt lat="43.381620" lon="-1.655080">
						<ele>4</ele>
						<time>2026-02-09T14:06:39Z</time>
					</trkpt>
					<trkpt lat="43.381810" lon="-1.655080">
						<ele>4</ele>
						<time>2026-02-09T14:06:45Z</time>
					</trkpt>
					<trkpt lat="43.381840" lon="-1.655370">
						<ele>4</ele>
						<time>2026-02-09T14:06:53Z</time>
					</trkpt>
					<trkpt lat="43.381930" lon="-1.656150">
						<ele>3</ele>
						<time>2026-02-09T14:07:12Z</time>
					</trkpt>
					<trkpt lat="43.381970" lon="-1.656480">
						<ele>3</ele>
						<time>2026-02-09T14:07:20Z</time>
					</trkpt>
					<trkpt lat="43.382030" lon="-1.656710">
						<ele>3</ele>
						<time>2026-02-09T14:07:26Z</time>
					</trkpt>
					<trkpt lat="43.382070" lon="-1.656870">
						<ele>3</ele>
						<time>2026-02-09T14:07:30Z</time>
					</trkpt>
					<trkpt lat="43.382160" lon="-1.657210">
						<ele>3</ele>
						<time>2026-02-09T14:07:39Z</time>
					</trkpt>
					<trkpt lat="43.382200" lon="-1.657370">
						<ele>3</ele>
						<time>2026-02-09T14:07:43Z</time>
					</trkpt>
					<trkpt lat="43.382650" lon="-1.659200">
						<ele>2</ele>
						<time>2026-02-09T14:08:30Z</time>
					</trkpt>
					<trkpt lat="43.382680" lon="-1.659270">
						<ele>2</ele>
						<time>2026-02-09T14:08:32Z</time>
					</trkpt>
					<trkpt lat="43.383030" lon="-1.660210">
						<ele>5</ele>
						<time>2026-02-09T14:08:57Z</time>
					</trkpt>
					<trkpt lat="43.383270" lon="-1.660870">
						<ele>6</ele>
						<time>2026-02-09T14:09:15Z</time>
					</trkpt>
					<trkpt lat="43.383420" lon="-1.661280">
						<ele>4</ele>
						<time>2026-02-09T14:09:26Z</time>
					</trkpt>
					<trkpt lat="43.383830" lon="-1.661770">
						<ele>5</ele>
						<time>2026-02-09T14:09:44Z</time>
					</trkpt>
					<trkpt lat="43.384680" lon="-1.662780">
						<ele>4</ele>
						<time>2026-02-09T14:10:22Z</time>
					</trkpt>
					<trkpt lat="43.384840" lon="-1.662720">
						<ele>4</ele>
						<time>2026-02-09T14:10:27Z</time>
					</trkpt>
					<trkpt lat="43.384990" lon="-1.662240">
						<ele>4</ele>
						<time>2026-02-09T14:10:40Z</time>
					</trkpt>
					<trkpt lat="43.385410" lon="-1.662620">
						<ele>3</ele>
						<time>2026-02-09T14:10:57Z</time>
					</trkpt>
					<trkpt lat="43.385620" lon="-1.662800">
						<ele>2</ele>
						<time>2026-02-09T14:11:05Z</time>
					</trkpt>
					<trkpt lat="43.385630" lon="-1.662810">
						<ele>2</ele>
						<time>2026-02-09T14:11:05Z</time>
					</trkpt>
					<trkpt lat="43.385830" lon="-1.662970">
						<ele>1</ele>
						<time>2026-02-09T14:11:13Z</time>
					</trkpt>
					<trkpt lat="43.386070" lon="-1.663160">
						<ele>0</ele>
						<time>2026-02-09T14:11:22Z</time>
					</trkpt>
					<trkpt lat="43.386110" lon="-1.663180">
						<ele>0</ele>
						<time>2026-02-09T14:11:24Z</time>
					</trkpt>
					<trkpt lat="43.386160" lon="-1.663180">
						<ele>0</ele>
						<time>2026-02-09T14:11:25Z</time>
					</trkpt>
					<trkpt lat="43.386190" lon="-1.663160">
						<ele>0</ele>
						<time>2026-02-09T14:11:27Z</time>
					</trkpt>
					<trkpt lat="43.386230" lon="-1.663100">
						<ele>1</ele>
						<time>2026-02-09T14:11:28Z</time>
					</trkpt>
					<trkpt lat="43.386240" lon="-1.663050">
						<ele>1</ele>
						<time>2026-02-09T14:11:30Z</time>
					</trkpt>
					<trkpt lat="43.386610" lon="-1.663370">
						<ele>-0</ele>
						<time>2026-02-09T14:11:44Z</time>
					</trkpt>
					<trkpt lat="43.386660" lon="-1.663480">
						<ele>-0</ele>
						<time>2026-02-09T14:11:47Z</time>
					</trkpt>
					<trkpt lat="43.386720" lon="-1.663550">
						<ele>0</ele>
						<time>2026-02-09T14:11:50Z</time>
					</trkpt>
					<trkpt lat="43.386780" lon="-1.663570">
						<ele>1</ele>
						<time>2026-02-09T14:11:52Z</time>
					</trkpt>
					<trkpt lat="43.386810" lon="-1.663560">
						<ele>1</ele>
						<time>2026-02-09T14:11:53Z</time>
					</trkpt>
					<trkpt lat="43.386850" lon="-1.663560">
						<ele>1</ele>
						<time>2026-02-09T14:11:55Z</time>
					</trkpt>
					<trkpt lat="43.386890" lon="-1.663600">
						<ele>1</ele>
						<time>2026-02-09T14:11:56Z</time>
					</trkpt>
					</trkseg>
				</trk>
			</gpx>